{"type":"FeatureCollection", "features": [
{"type":"Feature","geometry":{"type":"Polygon","coordinates":[[[-48.0047,-15.7548],[-48.0032,-15.7559],[-47.9972,-15.7625],[-47.9931,-15.7668],[-47.9879,-15.7724],[-47.9783,-15.7826],[-47.9773,-15.7821],[-47.9712,-15.7766],[-47.9756,-15.772],[-47.9758,-15.766],[-47.9763,-15.7642],[-47.9761,-15.7632],[-47.9728,-15.7558],[-47.9696,-15.7526],[-47.9633,-15.7489],[-47.949,-15.7478],[-47.9423,-15.7479],[-47.936,-15.7445],[-47.9279,-15.7402],[-47.9211,-15.7442],[-47.9211,-15.7426],[-47.9195,-15.74],[-47.917,-15.7402],[-47.934,-15.7676],[-47.9363,-15.7712],[-47.9386,-15.7774],[-47.9412,-15.7851],[-47.9474,-15.8038],[-47.9479,-15.8063],[-47.9485,-15.8109],[-47.9496,-15.8172],[-47.9506,-15.8234],[-47.9514,-15.829],[-47.9533,-15.8406],[-47.9465,-15.8427],[-47.9429,-15.8439],[-47.9401,-15.8446],[-47.9371,-15.8447],[-47.9315,-15.8451],[-47.9318,-15.8493],[-47.9353,-15.8623],[-47.9362,-15.8653],[-47.9367,-15.8677],[-47.9362,-15.8692],[-47.9366,-15.8701],[-47.947,-15.875],[-47.9491,-15.8761],[-47.9561,-15.8801],[-47.9563,-15.8813],[-47.9519,-15.8845],[-47.949,-15.8899],[-47.9484,-15.8908],[-47.9461,-15.8951],[-47.941,-15.8962],[-47.9393,-15.8954],[-47.9381,-15.8941],[-47.9354,-15.8932],[-47.9346,-15.8923],[-47.9338,-15.8921],[-47.9326,-15.8908],[-47.9314,-15.8905],[-47.9264,-15.8867],[-47.9251,-15.8862],[-47.9247,-15.8856],[-47.9225,-15.8845],[-47.9219,-15.8845],[-47.9187,-15.8835],[-47.9161,-15.8834],[-47.9151,-15.883],[-47.9137,-15.8829],[-47.9119,-15.8824],[-47.9098,-15.8822],[-47.9085,-15.8813],[-47.9061,-15.8813],[-47.906,-15.8827],[-47.9056,-15.8835],[-47.9058,-15.8847],[-47.9065,-15.8851],[-47.906,-15.8869],[-47.9061,-15.8895],[-47.9057,-15.8905],[-47.9059,-15.8915],[-47.9066,-15.8918],[-47.9066,-15.8931],[-47.9074,-15.894],[-47.908,-15.8955],[-47.9089,-15.8962],[-47.9083,-15.897],[-47.9095,-15.8982],[-47.9106,-15.9],[-47.9109,-15.9018],[-47.9108,-15.9028],[-47.9113,-15.9051],[-47.9121,-15.9071],[-47.9133,-15.9084],[-47.9119,-15.9097],[-47.9109,-15.9095],[-47.9097,-15.91],[-47.9084,-15.912],[-47.9078,-15.9125],[-47.9059,-15.9118],[-47.9046,-15.9121],[-47.9035,-15.912],[-47.9031,-15.9114],[-47.9018,-15.9113],[-47.8997,-15.912],[-47.8983,-15.9121],[-47.8961,-15.9113],[-47.8947,-15.9117],[-47.8907,-15.9115],[-47.8898,-15.9111],[-47.887,-15.9121],[-47.8861,-15.9129],[-47.8838,-15.9137],[-47.8826,-15.9133],[-47.8921,-15.9024],[-47.8937,-15.9007],[-47.8852,-15.8908],[-47.88,-15.8849],[-47.8743,-15.8821],[-47.8702,-15.8802],[-47.8669,-15.8785],[-47.8561,-15.8732],[-47.857,-15.8712],[-47.8512,-15.8687],[-47.8531,-15.8645],[-47.8539,-15.8641],[-47.8552,-15.8605],[-47.8563,-15.8588],[-47.8556,-15.8585],[-47.8536,-15.8566],[-47.8506,-15.8572],[-47.8429,-15.8616],[-47.8451,-15.8628],[-47.843,-15.8662],[-47.8372,-15.8629],[-47.8307,-15.8593],[-47.8205,-15.864],[-47.8198,-15.8629],[-47.8193,-15.861],[-47.8165,-15.8521],[-47.8153,-15.8495],[-47.8132,-15.8466],[-47.8124,-15.8458],[-47.8078,-15.8399],[-47.8001,-15.8299],[-47.796,-15.8245],[-47.794,-15.8208],[-47.7929,-15.8181],[-47.7884,-15.8096],[-47.7866,-15.8056],[-47.7859,-15.8027],[-47.7852,-15.8007],[-47.784,-15.798],[-47.7845,-15.7972],[-47.7848,-15.7935],[-47.7855,-15.7934],[-47.7855,-15.7917],[-47.7859,-15.7906],[-47.7872,-15.7909],[-47.7879,-15.7894],[-47.7889,-15.7885],[-47.7876,-15.7848],[-47.7868,-15.782],[-47.789,-15.7816],[-47.7936,-15.781],[-47.7948,-15.7811],[-47.7963,-15.7816],[-47.7979,-15.7827],[-47.7999,-15.7857],[-47.802,-15.7872],[-47.8035,-15.7874],[-47.8049,-15.7862],[-47.8053,-15.7843],[-47.8061,-15.7829],[-47.8077,-15.7814],[-47.8088,-15.7799],[-47.8117,-15.7751],[-47.8127,-15.7736],[-47.8132,-15.7723],[-47.8132,-15.7709],[-47.8124,-15.7689],[-47.8089,-15.7654],[-47.8085,-15.7645],[-47.8087,-15.7633],[-47.8094,-15.7624],[-47.812,-15.7598],[-47.8131,-15.7581],[-47.8116,-15.7573],[-47.8103,-15.7573],[-47.808,-15.7586],[-47.8053,-15.7591],[-47.7941,-15.7608],[-47.7898,-15.7615],[-47.7873,-15.7615],[-47.7839,-15.7605],[-47.7849,-15.7597],[-47.7852,-15.7581],[-47.7864,-15.7577],[-47.7855,-15.7559],[-47.7847,-15.756],[-47.7852,-15.7523],[-47.787,-15.7522],[-47.7863,-15.7494],[-47.7915,-15.7481],[-47.7909,-15.7457],[-47.784,-15.7432],[-47.7842,-15.7428],[-47.7887,-15.7309],[-47.7901,-15.7275],[-47.7908,-15.7255],[-47.7923,-15.7232],[-47.7942,-15.7216],[-47.797,-15.7198],[-47.804,-15.7149],[-47.8107,-15.7104],[-47.8142,-15.7079],[-47.8183,-15.7052],[-47.8274,-15.6989],[-47.8301,-15.6971],[-47.834,-15.6943],[-47.8359,-15.6934],[-47.8383,-15.6929],[-47.8489,-15.6929],[-47.8514,-15.6926],[-47.8527,-15.6921],[-47.8569,-15.6898],[-47.8573,-15.6897],[-47.8609,-15.6873],[-47.8644,-15.6843],[-47.8647,-15.6839],[-47.8697,-15.6797],[-47.8831,-15.6683],[-47.8852,-15.6666],[-47.8875,-15.665],[-47.8965,-15.6584],[-47.9001,-15.6557],[-47.9198,-15.6413],[-47.9381,-15.6278],[-47.9426,-15.6246],[-47.9463,-15.6218],[-47.95,-15.6192],[-47.9596,-15.612],[-47.9666,-15.6068],[-47.9705,-15.6037],[-47.9709,-15.6035],[-47.9754,-15.6],[-47.977,-15.5989],[-47.9808,-15.5959],[-47.985,-15.5927],[-47.9967,-15.5839],[-48.0012,-15.5804],[-48.0036,-15.5789],[-48.0068,-15.578],[-48.0093,-15.578],[-48.0111,-15.5784],[-48.0142,-15.5799],[-48.017,-15.5824],[-48.0185,-15.5836],[-48.0212,-15.5861],[-48.0224,-15.587],[-48.0267,-15.5908],[-48.0292,-15.5934],[-48.0327,-15.5978],[-48.0339,-15.5991],[-48.0364,-15.6023],[-48.0397,-15.6062],[-48.0428,-15.6101],[-48.0445,-15.6119],[-48.0463,-15.6134],[-48.0495,-15.6152],[-48.0541,-15.6172],[-48.0543,-15.6174],[-48.0595,-15.6197],[-48.0658,-15.6227],[-48.0689,-15.624],[-48.0709,-15.625],[-48.0729,-15.6266],[-48.0746,-15.6284],[-48.0756,-15.63],[-48.0766,-15.6323],[-48.0787,-15.6394],[-48.0791,-15.6411],[-48.0809,-15.647],[-48.0814,-15.649],[-48.0838,-15.657],[-48.084,-15.6581],[-48.085,-15.6612],[-48.0863,-15.6659],[-48.0872,-15.6687],[-48.0878,-15.6711],[-48.0892,-15.6757],[-48.0897,-15.6782],[-48.0897,-15.6809],[-48.0893,-15.6849],[-48.0892,-15.6875],[-48.0885,-15.6957],[-48.0881,-15.7023],[-48.0878,-15.7053],[-48.0869,-15.7178],[-48.0866,-15.7226],[-48.086,-15.7255],[-48.0853,-15.7273],[-48.0842,-15.7292],[-48.0832,-15.7304],[-48.0813,-15.732],[-48.0771,-15.7347],[-48.0729,-15.7365],[-48.064,-15.738],[-48.0601,-15.7391],[-48.0582,-15.74],[-48.0555,-15.7418],[-48.054,-15.743],[-48.0513,-15.7461],[-48.0499,-15.7484],[-48.0476,-15.7537],[-48.0423,-15.7533],[-48.0369,-15.753],[-48.0337,-15.7527],[-48.0253,-15.7521],[-48.0169,-15.7516],[-48.008,-15.7536],[-48.0047,-15.7548]]]},"properties":{"nome":"Central","macrorregiaoSaude":"Macrorregiāo 2","regioesAdministrativas":"Cruzeiro, Lago Norte, Lago Sul, Plano Piloto, Sudoeste/Octogonal, Varjão"}},
{"type":"Feature","geometry":{"type":"Polygon","coordinates":[[[-48.0047,-15.7548],[-48.005,-15.7577],[-48.0054,-15.759],[-48.0062,-15.7592],[-48.0068,-15.7608],[-48.0066,-15.7617],[-48.0073,-15.763],[-48.0073,-15.7649],[-48.0065,-15.7669],[-48.0068,-15.7692],[-48.0061,-15.7706],[-48.0063,-15.7728],[-48.0068,-15.7736],[-48.0066,-15.7761],[-48.006,-15.777],[-48.0059,-15.7797],[-48.0046,-15.7818],[-48.0041,-15.783],[-48.0042,-15.7846],[-48.003,-15.7857],[-48.003,-15.7862],[-47.9973,-15.7862],[-47.9957,-15.7863],[-47.9909,-15.787],[-47.9898,-15.7873],[-47.9907,-15.794],[-47.9912,-15.7995],[-47.9925,-15.8089],[-47.9929,-15.811],[-47.9947,-15.8109],[-48.0043,-15.8143],[-48.0045,-15.8155],[-48.001,-15.8176],[-48.0026,-15.8184],[-48.0032,-15.8182],[-48.0038,-15.8191],[-48.0054,-15.8199],[-48.0106,-15.822],[-48.0112,-15.8212],[-48.0136,-15.8222],[-48.0116,-15.827],[-48.0078,-15.8354],[-48.0053,-15.8343],[-48.0036,-15.8381],[-48.0062,-15.8391],[-48.0109,-15.8411],[-48.0091,-15.8449],[-48.0081,-15.8474],[-48.0076,-15.8473],[-48.0064,-15.8502],[-48.0031,-15.8489],[-48.002,-15.8483],[-48.0008,-15.8468],[-47.9999,-15.8464],[-47.9988,-15.8487],[-48.0005,-15.8502],[-48,-15.8511],[-47.9961,-15.855],[-47.9962,-15.8556],[-47.995,-15.8569],[-47.9946,-15.8566],[-47.9909,-15.8602],[-47.9903,-15.8601],[-47.988,-15.8624],[-47.9883,-15.8628],[-47.9865,-15.8648],[-47.9919,-15.8662],[-47.9914,-15.868],[-47.9918,-15.8685],[-47.9939,-15.869],[-47.9936,-15.8712],[-47.9922,-15.8763],[-47.9926,-15.8766],[-47.9991,-15.8771],[-48.0085,-15.878],[-48.0129,-15.8782],[-48.0209,-15.877],[-48.0237,-15.8767],[-48.0278,-15.8759],[-48.0329,-15.8752],[-48.0366,-15.8746],[-48.0424,-15.8738],[-48.0438,-15.8738],[-48.0462,-15.8746],[-48.0492,-15.8765],[-48.0507,-15.8776],[-48.0547,-15.8802],[-48.0571,-15.8814],[-48.0603,-15.8824],[-48.0541,-15.9017],[-48.051,-15.9116],[-48.049,-15.9176],[-48.0469,-15.9245],[-48.044,-15.9332],[-48.0435,-15.935],[-48.0422,-15.9387],[-48.0402,-15.9426],[-48.0382,-15.9454],[-48.0352,-15.9491],[-48.024,-15.9622],[-48.02,-15.967],[-48.016,-15.9715],[-48.0139,-15.9735],[-48.0115,-15.9752],[-48.0091,-15.9764],[-48.0067,-15.9773],[-48.003,-15.9781],[-48.0008,-15.9783],[-47.9966,-15.978],[-47.9908,-15.9768],[-47.9896,-15.9768],[-47.9784,-15.9746],[-47.9756,-15.9744],[-47.9712,-15.9746],[-47.9663,-15.9756],[-47.9657,-15.9759],[-47.9569,-15.9789],[-47.9485,-15.9819],[-47.9455,-15.9829],[-47.9412,-15.9838],[-47.9389,-15.984],[-47.9365,-15.984],[-47.9313,-15.9833],[-47.9291,-15.9827],[-47.9248,-15.9812],[-47.9008,-15.9724],[-47.9001,-15.9722],[-47.8924,-15.9693],[-47.8875,-15.9675],[-47.8875,-15.964],[-47.8873,-15.9634],[-47.8874,-15.9605],[-47.8877,-15.9586],[-47.8872,-15.9577],[-47.8881,-15.9558],[-47.8888,-15.9531],[-47.8898,-15.9515],[-47.8908,-15.9509],[-47.8921,-15.9489],[-47.8927,-15.9489],[-47.8958,-15.9464],[-47.896,-15.9454],[-47.8967,-15.9447],[-47.8963,-15.9424],[-47.8977,-15.9399],[-47.8987,-15.9352],[-47.8997,-15.9342],[-47.9005,-15.9341],[-47.9007,-15.9333],[-47.9019,-15.9322],[-47.9042,-15.9283],[-47.9044,-15.927],[-47.9056,-15.9255],[-47.9063,-15.924],[-47.9063,-15.923],[-47.9069,-15.9221],[-47.9067,-15.9184],[-47.9058,-15.9167],[-47.9061,-15.9153],[-47.907,-15.915],[-47.9079,-15.9131],[-47.9078,-15.9125],[-47.9084,-15.912],[-47.9097,-15.91],[-47.9109,-15.9095],[-47.9119,-15.9097],[-47.9133,-15.9084],[-47.9121,-15.9071],[-47.9113,-15.9051],[-47.9108,-15.9028],[-47.9109,-15.9018],[-47.9106,-15.9],[-47.9095,-15.8982],[-47.9083,-15.897],[-47.9089,-15.8962],[-47.908,-15.8955],[-47.9074,-15.894],[-47.9066,-15.8931],[-47.9066,-15.8918],[-47.9059,-15.8915],[-47.9057,-15.8905],[-47.9061,-15.8895],[-47.906,-15.8869],[-47.9065,-15.8851],[-47.9058,-15.8847],[-47.9056,-15.8835],[-47.906,-15.8827],[-47.9061,-15.8813],[-47.9085,-15.8813],[-47.9098,-15.8822],[-47.9119,-15.8824],[-47.9137,-15.8829],[-47.9151,-15.883],[-47.9161,-15.8834],[-47.9187,-15.8835],[-47.9219,-15.8845],[-47.9225,-15.8845],[-47.9247,-15.8856],[-47.9251,-15.8862],[-47.9264,-15.8867],[-47.9314,-15.8905],[-47.9326,-15.8908],[-47.9338,-15.8921],[-47.9346,-15.8923],[-47.9354,-15.8932],[-47.9381,-15.8941],[-47.9393,-15.8954],[-47.941,-15.8962],[-47.9461,-15.8951],[-47.9484,-15.8908],[-47.949,-15.8899],[-47.9519,-15.8845],[-47.9563,-15.8813],[-47.9561,-15.8801],[-47.9491,-15.8761],[-47.947,-15.875],[-47.9366,-15.8701],[-47.9362,-15.8692],[-47.9367,-15.8677],[-47.9362,-15.8653],[-47.9353,-15.8623],[-47.9318,-15.8493],[-47.9315,-15.8451],[-47.9371,-15.8447],[-47.9401,-15.8446],[-47.9429,-15.8439],[-47.9465,-15.8427],[-47.9533,-15.8406],[-47.9514,-15.829],[-47.9506,-15.8234],[-47.9496,-15.8172],[-47.9485,-15.8109],[-47.9479,-15.8063],[-47.9474,-15.8038],[-47.9412,-15.7851],[-47.9386,-15.7774],[-47.9363,-15.7712],[-47.934,-15.7676],[-47.917,-15.7402],[-47.9195,-15.74],[-47.9211,-15.7426],[-47.9211,-15.7442],[-47.9279,-15.7402],[-47.936,-15.7445],[-47.9423,-15.7479],[-47.949,-15.7478],[-47.9633,-15.7489],[-47.9696,-15.7526],[-47.9728,-15.7558],[-47.9761,-15.7632],[-47.9763,-15.7642],[-47.9758,-15.766],[-47.9756,-15.772],[-47.9712,-15.7766],[-47.9773,-15.7821],[-47.9783,-15.7826],[-47.9879,-15.7724],[-47.9931,-15.7668],[-47.9972,-15.7625],[-48.0032,-15.7559],[-48.0047,-15.7548]]]},"properties":{"nome":"Centro-Sul","macrorregiaoSaude":"Macrorregião 2","regioesAdministrativas":"Candagolândia, Guará, Núcleo Bandeirante, Park Way, Riacho Fundo I, Riacho Fundo II, SCIA/Estrutural, SIA"}},
{"type":"Feature","geometry":{"type":"Polygon","coordinates":[[[-47.7901,-15.7275],[-47.7887,-15.7309],[-47.7842,-15.7428],[-47.784,-15.7432],[-47.7909,-15.7457],[-47.7915,-15.7481],[-47.7863,-15.7494],[-47.787,-15.7522],[-47.7852,-15.7523],[-47.7847,-15.756],[-47.7855,-15.7559],[-47.7864,-15.7577],[-47.7852,-15.7581],[-47.7849,-15.7597],[-47.7839,-15.7605],[-47.7873,-15.7615],[-47.7898,-15.7615],[-47.7941,-15.7608],[-47.8053,-15.7591],[-47.808,-15.7586],[-47.8103,-15.7573],[-47.8116,-15.7573],[-47.8131,-15.7581],[-47.812,-15.7598],[-47.8094,-15.7624],[-47.8087,-15.7633],[-47.8085,-15.7645],[-47.8089,-15.7654],[-47.8124,-15.7689],[-47.8132,-15.7709],[-47.8132,-15.7723],[-47.8127,-15.7736],[-47.8117,-15.7751],[-47.8088,-15.7799],[-47.8077,-15.7814],[-47.8061,-15.7829],[-47.8053,-15.7843],[-47.8049,-15.7862],[-47.8035,-15.7874],[-47.802,-15.7872],[-47.7999,-15.7857],[-47.7979,-15.7827],[-47.7963,-15.7816],[-47.7948,-15.7811],[-47.7936,-15.781],[-47.789,-15.7816],[-47.7868,-15.782],[-47.7876,-15.7848],[-47.7889,-15.7885],[-47.7879,-15.7894],[-47.7872,-15.7909],[-47.7859,-15.7906],[-47.7855,-15.7917],[-47.7855,-15.7934],[-47.7848,-15.7935],[-47.7845,-15.7972],[-47.784,-15.798],[-47.7852,-15.8007],[-47.7859,-15.8027],[-47.7866,-15.8056],[-47.7884,-15.8096],[-47.7929,-15.8181],[-47.794,-15.8208],[-47.796,-15.8245],[-47.8001,-15.8299],[-47.8078,-15.8399],[-47.8124,-15.8458],[-47.8132,-15.8466],[-47.8153,-15.8495],[-47.8165,-15.8521],[-47.8193,-15.861],[-47.8198,-15.8629],[-47.8205,-15.864],[-47.8307,-15.8593],[-47.8372,-15.8629],[-47.843,-15.8662],[-47.8451,-15.8628],[-47.8429,-15.8616],[-47.8506,-15.8572],[-47.8536,-15.8566],[-47.8556,-15.8585],[-47.8563,-15.8588],[-47.8552,-15.8605],[-47.8539,-15.8641],[-47.8531,-15.8645],[-47.8512,-15.8687],[-47.857,-15.8712],[-47.8561,-15.8732],[-47.8669,-15.8785],[-47.8702,-15.8802],[-47.8743,-15.8821],[-47.88,-15.8849],[-47.8852,-15.8908],[-47.8937,-15.9007],[-47.8921,-15.9024],[-47.8826,-15.9133],[-47.8838,-15.9137],[-47.8861,-15.9129],[-47.887,-15.9121],[-47.8898,-15.9111],[-47.8907,-15.9115],[-47.8947,-15.9117],[-47.8961,-15.9113],[-47.8983,-15.9121],[-47.8997,-15.912],[-47.9018,-15.9113],[-47.9031,-15.9114],[-47.9035,-15.912],[-47.9046,-15.9121],[-47.9059,-15.9118],[-47.9078,-15.9125],[-47.9079,-15.9131],[-47.907,-15.915],[-47.9061,-15.9153],[-47.9058,-15.9167],[-47.9067,-15.9184],[-47.9069,-15.9221],[-47.9063,-15.923],[-47.9063,-15.924],[-47.9056,-15.9255],[-47.9044,-15.927],[-47.9042,-15.9283],[-47.9019,-15.9322],[-47.9007,-15.9333],[-47.9005,-15.9341],[-47.8997,-15.9342],[-47.8987,-15.9352],[-47.8977,-15.9399],[-47.8963,-15.9424],[-47.8967,-15.9447],[-47.896,-15.9454],[-47.8958,-15.9464],[-47.8927,-15.9489],[-47.8921,-15.9489],[-47.8908,-15.9509],[-47.8898,-15.9515],[-47.8888,-15.9531],[-47.8881,-15.9558],[-47.8872,-15.9577],[-47.8877,-15.9586],[-47.8874,-15.9605],[-47.8873,-15.9634],[-47.8875,-15.964],[-47.8875,-15.9675],[-47.8924,-15.9693],[-47.8915,-15.9713],[-47.8902,-15.9711],[-47.8886,-15.975],[-47.8879,-15.9755],[-47.8875,-15.9767],[-47.8854,-15.9771],[-47.8847,-15.9778],[-47.8845,-15.9791],[-47.8838,-15.9811],[-47.8822,-15.9841],[-47.8817,-15.9847],[-47.8804,-15.9881],[-47.8805,-15.9901],[-47.8791,-15.9922],[-47.8783,-15.9939],[-47.8779,-15.9971],[-47.8784,-15.9985],[-47.8785,-16],[-47.878,-16.0016],[-47.876,-16.0056],[-47.8756,-16.0076],[-47.8741,-16.0105],[-47.8721,-16.0113],[-47.8714,-16.0125],[-47.8706,-16.0128],[-47.8715,-16.0139],[-47.8721,-16.0139],[-47.8754,-16.0159],[-47.8757,-16.0167],[-47.877,-16.0183],[-47.8771,-16.0208],[-47.876,-16.0223],[-47.8749,-16.0249],[-47.8749,-16.0272],[-47.8735,-16.0286],[-47.8726,-16.0307],[-47.8726,-16.0317],[-47.8716,-16.0321],[-47.8709,-16.0332],[-47.8707,-16.0344],[-47.8696,-16.035],[-47.8686,-16.0376],[-47.8693,-16.038],[-47.8706,-16.0379],[-47.8737,-16.0389],[-47.8756,-16.0392],[-47.8765,-16.0404],[-47.8789,-16.0416],[-47.8792,-16.043],[-47.8808,-16.0442],[-47.8812,-16.0456],[-47.8825,-16.0467],[-47.8844,-16.0467],[-47.8853,-16.0472],[-47.8877,-16.0492],[-47.8885,-16.0503],[-47.8152,-16.0503],[-47.7212,-16.0504],[-47.6173,-16.0503],[-47.3101,-16.05],[-47.3112,-16.0431],[-47.3117,-16.0408],[-47.3117,-16.0393],[-47.3109,-16.0363],[-47.3126,-16.0358],[-47.3145,-16.0357],[-47.3163,-16.0361],[-47.318,-16.036],[-47.3187,-16.0354],[-47.3201,-16.0323],[-47.3215,-16.0305],[-47.3252,-16.0288],[-47.3274,-16.0281],[-47.3288,-16.0271],[-47.329,-16.0259],[-47.3303,-16.0249],[-47.3306,-16.0233],[-47.3313,-16.0226],[-47.3334,-16.022],[-47.3365,-16.0194],[-47.3368,-16.0183],[-47.3377,-16.0183],[-47.3394,-16.0193],[-47.3407,-16.0188],[-47.3407,-16.0166],[-47.3398,-16.0146],[-47.3399,-16.0132],[-47.3407,-16.0127],[-47.3435,-16.0118],[-47.3446,-16.0117],[-47.346,-16.0107],[-47.3465,-16.0091],[-47.3485,-16.0075],[-47.3497,-16.0071],[-47.3545,-16.0076],[-47.3566,-16.0088],[-47.3597,-16.0083],[-47.3603,-16.0078],[-47.3604,-16.0066],[-47.3618,-16.0066],[-47.3646,-16.0047],[-47.3651,-16.0038],[-47.3649,-16.0021],[-47.3655,-16.0015],[-47.3669,-16.0015],[-47.3691,-16.0025],[-47.3704,-16.0003],[-47.3705,-15.9995],[-47.3702,-15.9974],[-47.3703,-15.9961],[-47.3709,-15.9948],[-47.3727,-15.9943],[-47.3736,-15.9934],[-47.3744,-15.9905],[-47.3753,-15.9881],[-47.3765,-15.9858],[-47.3758,-15.9839],[-47.3765,-15.9826],[-47.3763,-15.9821],[-47.3737,-15.9812],[-47.3737,-15.9803],[-47.3743,-15.9797],[-47.3756,-15.9804],[-47.3764,-15.9783],[-47.3783,-15.9783],[-47.3789,-15.9776],[-47.3778,-15.9758],[-47.3777,-15.9749],[-47.3787,-15.9732],[-47.3773,-15.9722],[-47.3771,-15.9712],[-47.3783,-15.9702],[-47.3792,-15.9683],[-47.3782,-15.9681],[-47.3772,-15.9689],[-47.3762,-15.9689],[-47.3762,-15.9676],[-47.3755,-15.9663],[-47.3766,-15.9654],[-47.3771,-15.9645],[-47.377,-15.9637],[-47.3784,-15.962],[-47.377,-15.962],[-47.3758,-15.9614],[-47.3744,-15.9601],[-47.3731,-15.96],[-47.373,-15.959],[-47.3736,-15.9581],[-47.3747,-15.9582],[-47.3751,-15.9568],[-47.3748,-15.9563],[-47.3733,-15.9563],[-47.3718,-15.9558],[-47.3718,-15.9549],[-47.3724,-15.9535],[-47.3712,-15.9524],[-47.3706,-15.9511],[-47.3713,-15.9491],[-47.3708,-15.9486],[-47.3715,-15.9473],[-47.3686,-15.9473],[-47.3686,-15.9467],[-47.3698,-15.9455],[-47.3702,-15.9444],[-47.3698,-15.9431],[-47.3707,-15.943],[-47.3705,-15.9418],[-47.369,-15.9412],[-47.3699,-15.9405],[-47.3712,-15.9404],[-47.372,-15.9409],[-47.3726,-15.94],[-47.372,-15.9387],[-47.371,-15.9388],[-47.3705,-15.9372],[-47.3699,-15.9363],[-47.3711,-15.936],[-47.3724,-15.9377],[-47.3733,-15.9385],[-47.3735,-15.9367],[-47.3727,-15.9356],[-47.3717,-15.9351],[-47.3703,-15.9354],[-47.3689,-15.9351],[-47.3681,-15.933],[-47.3669,-15.933],[-47.3655,-15.9335],[-47.365,-15.9332],[-47.3662,-15.9312],[-47.3653,-15.9304],[-47.3638,-15.9316],[-47.3624,-15.9314],[-47.3644,-15.9303],[-47.3621,-15.9293],[-47.3627,-15.9283],[-47.3619,-15.9274],[-47.3615,-15.9263],[-47.3624,-15.9243],[-47.3623,-15.9229],[-47.3619,-15.9222],[-47.3623,-15.9214],[-47.3639,-15.9198],[-47.3646,-15.9194],[-47.3665,-15.9211],[-47.3672,-15.92],[-47.3687,-15.9192],[-47.3691,-15.9181],[-47.368,-15.9164],[-47.3683,-15.9159],[-47.3679,-15.9147],[-47.3671,-15.9141],[-47.3662,-15.9126],[-47.3678,-15.9125],[-47.368,-15.9115],[-47.367,-15.9116],[-47.3666,-15.9106],[-47.3656,-15.9099],[-47.3657,-15.9092],[-47.3668,-15.9088],[-47.3672,-15.908],[-47.3683,-15.9084],[-47.3712,-15.9077],[-47.372,-15.9066],[-47.3732,-15.9064],[-47.3747,-15.907],[-47.3739,-15.905],[-47.3739,-15.9043],[-47.3724,-15.9004],[-47.3727,-15.8995],[-47.3748,-15.8993],[-47.3757,-15.8997],[-47.3758,-15.8983],[-47.3747,-15.8972],[-47.3766,-15.8968],[-47.3766,-15.896],[-47.3758,-15.8954],[-47.3758,-15.8946],[-47.3766,-15.8938],[-47.3759,-15.8925],[-47.3763,-15.8915],[-47.3771,-15.8912],[-47.3781,-15.8915],[-47.3772,-15.8895],[-47.377,-15.888],[-47.3784,-15.8881],[-47.379,-15.8864],[-47.378,-15.8857],[-47.3788,-15.8842],[-47.3771,-15.8834],[-47.3769,-15.883],[-47.3783,-15.8819],[-47.38,-15.882],[-47.3807,-15.8814],[-47.3801,-15.8805],[-47.3777,-15.8806],[-47.3773,-15.8816],[-47.3764,-15.8811],[-47.3746,-15.8787],[-47.375,-15.8779],[-47.3736,-15.8773],[-47.3738,-15.8758],[-47.3722,-15.8745],[-47.372,-15.8726],[-47.3715,-15.8708],[-47.3724,-15.8709],[-47.3733,-15.8692],[-47.3718,-15.8687],[-47.3712,-15.868],[-47.3716,-15.8669],[-47.3709,-15.8655],[-47.3734,-15.8654],[-47.3744,-15.8642],[-47.3729,-15.8628],[-47.37,-15.8616],[-47.3698,-15.861],[-47.3707,-15.8602],[-47.3701,-15.8596],[-47.3694,-15.8575],[-47.3697,-15.8555],[-47.3708,-15.855],[-47.3681,-15.8535],[-47.3679,-15.8519],[-47.3694,-15.8497],[-47.3688,-15.8488],[-47.3706,-15.849],[-47.3713,-15.8487],[-47.3709,-15.8474],[-47.3702,-15.8472],[-47.3691,-15.8477],[-47.3688,-15.8465],[-47.3696,-15.8458],[-47.3708,-15.8459],[-47.3726,-15.8461],[-47.3728,-15.845],[-47.3738,-15.8446],[-47.3745,-15.8456],[-47.3769,-15.8466],[-47.3777,-15.8461],[-47.3784,-15.8472],[-47.379,-15.8463],[-47.3801,-15.8471],[-47.3812,-15.8457],[-47.382,-15.8456],[-47.3823,-15.8466],[-47.3831,-15.8471],[-47.3837,-15.8465],[-47.3853,-15.8461],[-47.3859,-15.848],[-47.3861,-15.8503],[-47.3871,-15.8569],[-47.3916,-15.8577],[-47.402,-15.8599],[-47.4126,-15.862],[-47.423,-15.8642],[-47.4239,-15.8642],[-47.4319,-15.8624],[-47.4373,-15.8611],[-47.4507,-15.858],[-47.4537,-15.8577],[-47.4561,-15.8584],[-47.4629,-15.8625],[-47.465,-15.8631],[-47.4672,-15.8631],[-47.4785,-15.8608],[-47.4801,-15.8604],[-47.4881,-15.8589],[-47.4908,-15.8583],[-47.4976,-15.857],[-47.5014,-15.8562],[-47.5092,-15.8547],[-47.5108,-15.8543],[-47.5174,-15.8531],[-47.52,-15.8535],[-47.5284,-15.8581],[-47.5308,-15.8593],[-47.537,-15.8626],[-47.547,-15.868],[-47.5541,-15.8719],[-47.5554,-15.8723],[-47.5582,-15.8723],[-47.5642,-15.8704],[-47.5662,-15.8699],[-47.5739,-15.8676],[-47.576,-15.8669],[-47.5839,-15.8646],[-47.5867,-15.8637],[-47.59,-15.8628],[-47.6024,-15.859],[-47.6051,-15.8588],[-47.6139,-15.8611],[-47.6174,-15.8621],[-47.6211,-15.863],[-47.6226,-15.8578],[-47.6237,-15.8536],[-47.6253,-15.8483],[-47.6268,-15.8428],[-47.6288,-15.836],[-47.6298,-15.8322],[-47.6306,-15.8297],[-47.6316,-15.826],[-47.6346,-15.8155],[-47.6354,-15.8125],[-47.6376,-15.8051],[-47.6397,-15.7974],[-47.6402,-15.796],[-47.6416,-15.791],[-47.6425,-15.7882],[-47.644,-15.7857],[-47.6497,-15.7756],[-47.6542,-15.7674],[-47.6587,-15.7596],[-47.6613,-15.7548],[-47.6638,-15.7505],[-47.6645,-15.7478],[-47.6644,-15.7457],[-47.6605,-15.7274],[-47.6621,-15.727],[-47.6638,-15.727],[-47.6647,-15.7273],[-47.6692,-15.73],[-47.6707,-15.731],[-47.6735,-15.7339],[-47.6747,-15.7344],[-47.6756,-15.7339],[-47.6745,-15.7332],[-47.6758,-15.7323],[-47.6778,-15.7326],[-47.6786,-15.7331],[-47.6789,-15.7339],[-47.6806,-15.7338],[-47.6818,-15.7321],[-47.6826,-15.7323],[-47.6836,-15.7311],[-47.685,-15.731],[-47.6851,-15.7304],[-47.6875,-15.7294],[-47.6884,-15.7286],[-47.6895,-15.7269],[-47.6906,-15.7263],[-47.6915,-15.7265],[-47.693,-15.7258],[-47.6935,-15.7261],[-47.6954,-15.7262],[-47.6965,-15.727],[-47.6983,-15.7274],[-47.699,-15.7271],[-47.7,-15.7276],[-47.701,-15.7275],[-47.7011,-15.7284],[-47.7024,-15.7284],[-47.7031,-15.7265],[-47.704,-15.7263],[-47.7051,-15.7271],[-47.7081,-15.727],[-47.7095,-15.7275],[-47.7102,-15.7266],[-47.7111,-15.7275],[-47.7125,-15.7278],[-47.7131,-15.7283],[-47.7146,-15.7276],[-47.7154,-15.7277],[-47.7166,-15.7271],[-47.7179,-15.7271],[-47.7187,-15.7256],[-47.7196,-15.7253],[-47.721,-15.7265],[-47.7229,-15.7269],[-47.7237,-15.7266],[-47.7259,-15.727],[-47.7274,-15.7278],[-47.7287,-15.7278],[-47.7294,-15.7283],[-47.7308,-15.7269],[-47.7319,-15.7268],[-47.7332,-15.7262],[-47.7343,-15.7268],[-47.7354,-15.7267],[-47.7369,-15.7279],[-47.7382,-15.7277],[-47.7409,-15.7279],[-47.7417,-15.7275],[-47.7428,-15.7276],[-47.7434,-15.7268],[-47.7443,-15.7246],[-47.7456,-15.724],[-47.7477,-15.724],[-47.748,-15.723],[-47.75,-15.7219],[-47.7511,-15.7209],[-47.7511,-15.7202],[-47.7521,-15.7194],[-47.7533,-15.7189],[-47.7541,-15.7181],[-47.7559,-15.7181],[-47.7564,-15.7175],[-47.7573,-15.7177],[-47.7597,-15.7149],[-47.7604,-15.7149],[-47.7617,-15.7142],[-47.7629,-15.7144],[-47.7654,-15.7169],[-47.7666,-15.7183],[-47.7711,-15.7227],[-47.7741,-15.7241],[-47.7762,-15.7245],[-47.7782,-15.7245],[-47.7814,-15.724],[-47.7822,-15.7246],[-47.7901,-15.7275]]]},"properties":{"nome":"Leste","macrorregiaoSaude":"Macrorregiāo 3","regioesAdministrativas":"Itapoã, Jardim Botânico, Paranoá, São Sebastião"}},
{"type":"Feature","geometry":{"type":"Polygon","coordinates":[[[-47.3586,-15.5802],[-47.3601,-15.5795],[-47.3614,-15.5801],[-47.3617,-15.578],[-47.3635,-15.5778],[-47.3665,-15.5786],[-47.3686,-15.5789],[-47.3697,-15.5782],[-47.3725,-15.5772],[-47.3747,-15.5772],[-47.3759,-15.5766],[-47.3768,-15.5766],[-47.3785,-15.5743],[-47.3793,-15.5735],[-47.3791,-15.5726],[-47.3796,-15.5717],[-47.3797,-15.5688],[-47.3806,-15.5683],[-47.3801,-15.5674],[-47.3808,-15.5666],[-47.3835,-15.5668],[-47.3843,-15.5674],[-47.3857,-15.5663],[-47.3872,-15.5672],[-47.3893,-15.5674],[-47.3903,-15.5665],[-47.3904,-15.565],[-47.391,-15.5647],[-47.3914,-15.5628],[-47.3929,-15.5623],[-47.3937,-15.5598],[-47.3945,-15.558],[-47.3963,-15.558],[-47.3975,-15.5575],[-47.3983,-15.5576],[-47.3995,-15.557],[-47.3996,-15.5562],[-47.3986,-15.5529],[-47.3993,-15.5508],[-47.4006,-15.5515],[-47.4022,-15.5503],[-47.4025,-15.5484],[-47.4023,-15.5478],[-47.4045,-15.5468],[-47.4068,-15.5468],[-47.4082,-15.5479],[-47.4097,-15.5479],[-47.4121,-15.5471],[-47.4141,-15.5482],[-47.4161,-15.5463],[-47.4171,-15.5463],[-47.4184,-15.5451],[-47.4184,-15.5018],[-47.7721,-15.5024],[-47.976,-15.5024],[-48.0348,-15.5024],[-48.0341,-15.5036],[-48.0342,-15.505],[-48.0358,-15.5081],[-48.0373,-15.5113],[-48.0394,-15.5165],[-48.0398,-15.5194],[-48.0389,-15.5255],[-48.0379,-15.5277],[-48.0358,-15.5308],[-48.0345,-15.5316],[-48.0328,-15.5307],[-48.0318,-15.5315],[-48.0331,-15.5336],[-48.0376,-15.5376],[-48.038,-15.5381],[-48.0416,-15.5412],[-48.0426,-15.5425],[-48.0435,-15.5444],[-48.0439,-15.5463],[-48.0435,-15.5485],[-48.0422,-15.5504],[-48.0361,-15.554],[-48.0349,-15.5551],[-48.0342,-15.5562],[-48.0336,-15.558],[-48.0337,-15.5597],[-48.0352,-15.5629],[-48.0354,-15.5637],[-48.035,-15.5654],[-48.029,-15.57],[-48.0269,-15.5714],[-48.0241,-15.5738],[-48.017,-15.5824],[-48.0142,-15.5799],[-48.0111,-15.5784],[-48.0093,-15.578],[-48.0068,-15.578],[-48.0036,-15.5789],[-48.0012,-15.5804],[-47.9967,-15.5839],[-47.985,-15.5927],[-47.9808,-15.5959],[-47.977,-15.5989],[-47.9754,-15.6],[-47.9709,-15.6035],[-47.9705,-15.6037],[-47.9666,-15.6068],[-47.9596,-15.612],[-47.95,-15.6192],[-47.9463,-15.6218],[-47.9426,-15.6246],[-47.9381,-15.6278],[-47.9198,-15.6413],[-47.9001,-15.6557],[-47.8965,-15.6584],[-47.8875,-15.665],[-47.8852,-15.6666],[-47.8831,-15.6683],[-47.8697,-15.6797],[-47.8647,-15.6839],[-47.8644,-15.6843],[-47.8609,-15.6873],[-47.8573,-15.6897],[-47.8569,-15.6898],[-47.8527,-15.6921],[-47.8514,-15.6926],[-47.8489,-15.6929],[-47.8383,-15.6929],[-47.8359,-15.6934],[-47.834,-15.6943],[-47.8301,-15.6971],[-47.8274,-15.6989],[-47.8183,-15.7052],[-47.8142,-15.7079],[-47.8107,-15.7104],[-47.804,-15.7149],[-47.797,-15.7198],[-47.7942,-15.7216],[-47.7923,-15.7232],[-47.7908,-15.7255],[-47.7901,-15.7275],[-47.7822,-15.7246],[-47.7814,-15.724],[-47.7782,-15.7245],[-47.7762,-15.7245],[-47.7741,-15.7241],[-47.7711,-15.7227],[-47.7666,-15.7183],[-47.7654,-15.7169],[-47.7629,-15.7144],[-47.7617,-15.7142],[-47.7604,-15.7149],[-47.7597,-15.7149],[-47.7573,-15.7177],[-47.7564,-15.7175],[-47.7559,-15.7181],[-47.7541,-15.7181],[-47.7533,-15.7189],[-47.7521,-15.7194],[-47.7511,-15.7202],[-47.7511,-15.7209],[-47.75,-15.7219],[-47.748,-15.723],[-47.7477,-15.724],[-47.7456,-15.724],[-47.7443,-15.7246],[-47.7434,-15.7268],[-47.7428,-15.7276],[-47.7417,-15.7275],[-47.7409,-15.7279],[-47.7382,-15.7277],[-47.7369,-15.7279],[-47.7354,-15.7267],[-47.7343,-15.7268],[-47.7332,-15.7262],[-47.7319,-15.7268],[-47.7308,-15.7269],[-47.7294,-15.7283],[-47.7287,-15.7278],[-47.7274,-15.7278],[-47.7259,-15.727],[-47.7237,-15.7266],[-47.7229,-15.7269],[-47.721,-15.7265],[-47.7196,-15.7253],[-47.7187,-15.7256],[-47.7179,-15.7271],[-47.7166,-15.7271],[-47.7154,-15.7277],[-47.7146,-15.7276],[-47.7131,-15.7283],[-47.7125,-15.7278],[-47.7111,-15.7275],[-47.7102,-15.7266],[-47.7095,-15.7275],[-47.7081,-15.727],[-47.7051,-15.7271],[-47.704,-15.7263],[-47.7031,-15.7265],[-47.7024,-15.7284],[-47.7011,-15.7284],[-47.701,-15.7275],[-47.7,-15.7276],[-47.699,-15.7271],[-47.6983,-15.7274],[-47.6965,-15.727],[-47.6954,-15.7262],[-47.6935,-15.7261],[-47.693,-15.7258],[-47.6915,-15.7265],[-47.6906,-15.7263],[-47.6895,-15.7269],[-47.6884,-15.7286],[-47.6875,-15.7294],[-47.6851,-15.7304],[-47.685,-15.731],[-47.6836,-15.7311],[-47.6826,-15.7323],[-47.6818,-15.7321],[-47.6806,-15.7338],[-47.6789,-15.7339],[-47.6786,-15.7331],[-47.6778,-15.7326],[-47.6758,-15.7323],[-47.6745,-15.7332],[-47.6756,-15.7339],[-47.6747,-15.7344],[-47.6735,-15.7339],[-47.6707,-15.731],[-47.6692,-15.73],[-47.6647,-15.7273],[-47.6638,-15.727],[-47.6621,-15.727],[-47.6605,-15.7274],[-47.6644,-15.7457],[-47.6645,-15.7478],[-47.6638,-15.7505],[-47.6613,-15.7548],[-47.6587,-15.7596],[-47.6542,-15.7674],[-47.6497,-15.7756],[-47.644,-15.7857],[-47.6425,-15.7882],[-47.6416,-15.791],[-47.6402,-15.796],[-47.6397,-15.7974],[-47.6376,-15.8051],[-47.6354,-15.8125],[-47.6346,-15.8155],[-47.6316,-15.826],[-47.6306,-15.8297],[-47.6298,-15.8322],[-47.6288,-15.836],[-47.6268,-15.8428],[-47.6253,-15.8483],[-47.6237,-15.8536],[-47.6226,-15.8578],[-47.6211,-15.863],[-47.6174,-15.8621],[-47.6139,-15.8611],[-47.6051,-15.8588],[-47.6024,-15.859],[-47.59,-15.8628],[-47.5867,-15.8637],[-47.5839,-15.8646],[-47.576,-15.8669],[-47.5739,-15.8676],[-47.5662,-15.8699],[-47.5642,-15.8704],[-47.5582,-15.8723],[-47.5554,-15.8723],[-47.5541,-15.8719],[-47.547,-15.868],[-47.537,-15.8626],[-47.5308,-15.8593],[-47.5284,-15.8581],[-47.52,-15.8535],[-47.5174,-15.8531],[-47.5108,-15.8543],[-47.5092,-15.8547],[-47.5014,-15.8562],[-47.4976,-15.857],[-47.4908,-15.8583],[-47.4881,-15.8589],[-47.4801,-15.8604],[-47.4785,-15.8608],[-47.4672,-15.8631],[-47.465,-15.8631],[-47.4629,-15.8625],[-47.4561,-15.8584],[-47.4537,-15.8577],[-47.4507,-15.858],[-47.4373,-15.8611],[-47.4319,-15.8624],[-47.4239,-15.8642],[-47.423,-15.8642],[-47.4126,-15.862],[-47.402,-15.8599],[-47.3916,-15.8577],[-47.3871,-15.8569],[-47.3861,-15.8503],[-47.3859,-15.848],[-47.3853,-15.8461],[-47.3837,-15.8465],[-47.3831,-15.8471],[-47.3823,-15.8466],[-47.382,-15.8456],[-47.3812,-15.8457],[-47.3801,-15.8471],[-47.379,-15.8463],[-47.3784,-15.8472],[-47.3777,-15.8461],[-47.3769,-15.8466],[-47.3745,-15.8456],[-47.3738,-15.8446],[-47.3728,-15.845],[-47.3726,-15.8461],[-47.3708,-15.8459],[-47.37,-15.8454],[-47.3683,-15.8429],[-47.3683,-15.842],[-47.3692,-15.8409],[-47.3679,-15.84],[-47.3678,-15.8392],[-47.367,-15.8387],[-47.3669,-15.8373],[-47.3678,-15.8375],[-47.3679,-15.8355],[-47.3673,-15.8354],[-47.366,-15.8375],[-47.3654,-15.8351],[-47.3649,-15.8341],[-47.3656,-15.8329],[-47.3665,-15.832],[-47.3659,-15.8307],[-47.3667,-15.8301],[-47.3667,-15.8294],[-47.3675,-15.8287],[-47.3661,-15.8273],[-47.3649,-15.8279],[-47.3637,-15.8279],[-47.3621,-15.8272],[-47.3628,-15.826],[-47.363,-15.8248],[-47.3612,-15.8243],[-47.3603,-15.8237],[-47.361,-15.8222],[-47.3609,-15.8215],[-47.3599,-15.8215],[-47.3592,-15.8237],[-47.3574,-15.8242],[-47.3571,-15.823],[-47.3559,-15.8236],[-47.3554,-15.8234],[-47.3546,-15.8221],[-47.3546,-15.8214],[-47.3563,-15.8206],[-47.3558,-15.8196],[-47.3562,-15.8188],[-47.3549,-15.817],[-47.3542,-15.818],[-47.3529,-15.818],[-47.3531,-15.8169],[-47.3552,-15.8162],[-47.3547,-15.8157],[-47.3543,-15.814],[-47.3527,-15.8151],[-47.353,-15.8137],[-47.3525,-15.8123],[-47.351,-15.8115],[-47.35,-15.8101],[-47.3503,-15.8078],[-47.3484,-15.8077],[-47.3483,-15.8056],[-47.3496,-15.8053],[-47.3496,-15.8039],[-47.3477,-15.8029],[-47.3465,-15.8034],[-47.3455,-15.803],[-47.3461,-15.802],[-47.346,-15.801],[-47.345,-15.8008],[-47.3446,-15.8001],[-47.3458,-15.7978],[-47.3445,-15.7973],[-47.344,-15.7959],[-47.3432,-15.7971],[-47.3417,-15.7951],[-47.3392,-15.7932],[-47.3399,-15.7925],[-47.3388,-15.7914],[-47.3399,-15.791],[-47.3391,-15.7899],[-47.3391,-15.7882],[-47.3374,-15.7868],[-47.337,-15.7857],[-47.3353,-15.7852],[-47.3367,-15.7827],[-47.336,-15.7814],[-47.3351,-15.7821],[-47.3336,-15.781],[-47.3329,-15.7815],[-47.3326,-15.78],[-47.3309,-15.7791],[-47.3313,-15.7785],[-47.3308,-15.7762],[-47.3314,-15.7743],[-47.3304,-15.774],[-47.3292,-15.7742],[-47.3286,-15.7732],[-47.3285,-15.7722],[-47.3275,-15.7716],[-47.3289,-15.7703],[-47.3286,-15.7695],[-47.3299,-15.7692],[-47.3294,-15.7683],[-47.3294,-15.7672],[-47.3287,-15.7666],[-47.3285,-15.7657],[-47.3273,-15.7653],[-47.3266,-15.7638],[-47.3263,-15.7625],[-47.324,-15.761],[-47.3246,-15.7598],[-47.324,-15.7595],[-47.3235,-15.7579],[-47.3219,-15.7577],[-47.3212,-15.7573],[-47.3212,-15.7557],[-47.3222,-15.7556],[-47.3221,-15.7546],[-47.3202,-15.7554],[-47.3194,-15.7547],[-47.3201,-15.7534],[-47.3191,-15.7519],[-47.3185,-15.7518],[-47.3188,-15.7502],[-47.3185,-15.7495],[-47.3175,-15.7488],[-47.3169,-15.7479],[-47.317,-15.7466],[-47.3161,-15.7462],[-47.3162,-15.7477],[-47.3148,-15.7481],[-47.3149,-15.7471],[-47.3142,-15.7465],[-47.3144,-15.7451],[-47.3141,-15.7446],[-47.3147,-15.7434],[-47.314,-15.7425],[-47.3142,-15.7416],[-47.3134,-15.7405],[-47.3141,-15.7398],[-47.3136,-15.7381],[-47.3155,-15.7363],[-47.3169,-15.7369],[-47.3176,-15.7357],[-47.3173,-15.7347],[-47.3192,-15.7338],[-47.3192,-15.7329],[-47.3181,-15.7329],[-47.3185,-15.7318],[-47.3179,-15.7314],[-47.3174,-15.7296],[-47.3188,-15.7266],[-47.3181,-15.7249],[-47.319,-15.7236],[-47.321,-15.7226],[-47.3211,-15.7214],[-47.3204,-15.721],[-47.3206,-15.7186],[-47.319,-15.7181],[-47.3187,-15.7171],[-47.3179,-15.7172],[-47.3169,-15.7161],[-47.3162,-15.7164],[-47.3152,-15.7154],[-47.3155,-15.7144],[-47.3151,-15.7118],[-47.3138,-15.7111],[-47.3141,-15.7103],[-47.315,-15.7106],[-47.3156,-15.7101],[-47.3149,-15.7092],[-47.3138,-15.7086],[-47.3138,-15.7064],[-47.3133,-15.7062],[-47.3143,-15.7045],[-47.314,-15.7029],[-47.3144,-15.7027],[-47.3127,-15.6971],[-47.3137,-15.6948],[-47.3149,-15.6944],[-47.3153,-15.6952],[-47.3162,-15.6949],[-47.3165,-15.6935],[-47.3176,-15.6931],[-47.3183,-15.692],[-47.3177,-15.6917],[-47.3178,-15.6902],[-47.3185,-15.6901],[-47.3198,-15.6889],[-47.3195,-15.6882],[-47.321,-15.6877],[-47.3216,-15.6891],[-47.3226,-15.6886],[-47.323,-15.6894],[-47.3239,-15.6888],[-47.3257,-15.6885],[-47.3258,-15.689],[-47.3284,-15.6883],[-47.3277,-15.6874],[-47.3283,-15.6866],[-47.3284,-15.6853],[-47.3279,-15.6844],[-47.3281,-15.6833],[-47.3302,-15.6838],[-47.3315,-15.6835],[-47.3316,-15.6818],[-47.332,-15.6813],[-47.3318,-15.6802],[-47.3308,-15.6797],[-47.3291,-15.68],[-47.3286,-15.6782],[-47.3291,-15.6772],[-47.3285,-15.6769],[-47.3282,-15.6757],[-47.3272,-15.6754],[-47.3273,-15.6738],[-47.3277,-15.6725],[-47.327,-15.6719],[-47.3278,-15.6709],[-47.3261,-15.6694],[-47.3267,-15.6681],[-47.3281,-15.6671],[-47.3283,-15.6661],[-47.3269,-15.6649],[-47.3281,-15.6643],[-47.3286,-15.6635],[-47.3271,-15.6635],[-47.327,-15.662],[-47.3274,-15.6608],[-47.3282,-15.6607],[-47.3278,-15.659],[-47.3286,-15.6582],[-47.3286,-15.6566],[-47.3296,-15.6561],[-47.3285,-15.6547],[-47.3273,-15.6547],[-47.3273,-15.6536],[-47.3266,-15.6528],[-47.327,-15.6519],[-47.3288,-15.6511],[-47.3285,-15.6494],[-47.327,-15.6493],[-47.3275,-15.6483],[-47.3274,-15.6469],[-47.3291,-15.6461],[-47.3305,-15.646],[-47.3304,-15.645],[-47.3293,-15.6439],[-47.3298,-15.6429],[-47.3296,-15.6418],[-47.3298,-15.6391],[-47.3307,-15.6389],[-47.3308,-15.6371],[-47.3316,-15.6369],[-47.3308,-15.6357],[-47.3318,-15.6352],[-47.3325,-15.6339],[-47.3325,-15.6331],[-47.3332,-15.6322],[-47.3329,-15.6313],[-47.3339,-15.6296],[-47.3329,-15.6295],[-47.332,-15.6286],[-47.3322,-15.6269],[-47.3305,-15.6249],[-47.3307,-15.6243],[-47.3301,-15.623],[-47.3311,-15.6223],[-47.3305,-15.6217],[-47.3306,-15.6202],[-47.33,-15.6188],[-47.3287,-15.6183],[-47.3287,-15.6172],[-47.3292,-15.6159],[-47.3284,-15.6146],[-47.3283,-15.6132],[-47.3262,-15.6103],[-47.3251,-15.6097],[-47.3248,-15.6081],[-47.3255,-15.6078],[-47.3249,-15.6065],[-47.3239,-15.606],[-47.323,-15.6038],[-47.3232,-15.603],[-47.323,-15.6011],[-47.3231,-15.5997],[-47.3216,-15.5982],[-47.3204,-15.5981],[-47.3199,-15.5974],[-47.3173,-15.5969],[-47.3158,-15.5969],[-47.3158,-15.5952],[-47.3162,-15.5941],[-47.3172,-15.5937],[-47.3176,-15.5921],[-47.3171,-15.591],[-47.3172,-15.5902],[-47.3186,-15.5886],[-47.3186,-15.5871],[-47.3192,-15.5867],[-47.3213,-15.5869],[-47.3221,-15.5863],[-47.3242,-15.5873],[-47.3244,-15.589],[-47.326,-15.5887],[-47.3264,-15.5891],[-47.3278,-15.589],[-47.33,-15.586],[-47.3306,-15.5861],[-47.3317,-15.5872],[-47.3334,-15.587],[-47.334,-15.5875],[-47.3353,-15.5872],[-47.3358,-15.5862],[-47.3366,-15.5856],[-47.3382,-15.5851],[-47.3396,-15.5838],[-47.3406,-15.5837],[-47.3427,-15.582],[-47.3443,-15.5813],[-47.3471,-15.579],[-47.3489,-15.5792],[-47.3497,-15.5797],[-47.3496,-15.5806],[-47.351,-15.5804],[-47.3522,-15.5807],[-47.3535,-15.5806],[-47.3547,-15.5799],[-47.3561,-15.5796],[-47.3572,-15.5802],[-47.3586,-15.5802]]]},"properties":{"nome":"Norte","macrorregiaoSaude":"Macrorregião 3","regioesAdministrativas":"Fercal, Planaltina, Sobradinho, Sobradinho II"}},
{"type":"Feature","geometry":{"type":"Polygon","coordinates":[[[-48.2399,-15.7001],[-48.2405,-15.7018],[-48.2403,-15.703],[-48.2415,-15.7038],[-48.241,-15.7059],[-48.2383,-15.7082],[-48.237,-15.7079],[-48.236,-15.7089],[-48.2334,-15.7085],[-48.2323,-15.7096],[-48.2306,-15.7097],[-48.2302,-15.7093],[-48.2288,-15.7093],[-48.2282,-15.7089],[-48.2265,-15.7091],[-48.2245,-15.7098],[-48.2225,-15.7082],[-48.2209,-15.7087],[-48.2187,-15.709],[-48.2172,-15.7099],[-48.2159,-15.7101],[-48.2137,-15.7113],[-48.2102,-15.7128],[-48.2078,-15.7177],[-48.2077,-15.7238],[-48.2066,-15.7323],[-48.2078,-15.738],[-48.2082,-15.7403],[-48.2056,-15.747],[-48.2056,-15.7503],[-48.2067,-15.7551],[-48.2127,-15.7632],[-48.2135,-15.7667],[-48.2161,-15.7689],[-48.2282,-15.777],[-48.232,-15.7785],[-48.2324,-15.7799],[-48.2331,-15.781],[-48.2323,-15.7838],[-48.2332,-15.7844],[-48.2353,-15.785],[-48.2369,-15.7849],[-48.2378,-15.7859],[-48.2379,-15.7868],[-48.2369,-15.7887],[-48.2372,-15.7901],[-48.2388,-15.7929],[-48.2397,-15.7938],[-48.2406,-15.7938],[-48.2411,-15.7955],[-48.2404,-15.7984],[-48.2413,-15.7995],[-48.2423,-15.7995],[-48.2428,-15.7974],[-48.2443,-15.7972],[-48.2451,-15.7976],[-48.2468,-15.7978],[-48.2459,-15.7992],[-48.2461,-15.8],[-48.2474,-15.7987],[-48.2488,-15.7986],[-48.2491,-15.8007],[-48.2499,-15.8011],[-48.2503,-15.8021],[-48.2526,-15.8022],[-48.2534,-15.8019],[-48.2551,-15.8021],[-48.2566,-15.8017],[-48.2575,-15.803],[-48.259,-15.8028],[-48.2592,-15.8035],[-48.2612,-15.8056],[-48.2622,-15.8059],[-48.2634,-15.8069],[-48.2641,-15.8066],[-48.265,-15.8089],[-48.2663,-15.8069],[-48.2671,-15.8082],[-48.2679,-15.8085],[-48.2682,-15.8101],[-48.2678,-15.8112],[-48.268,-15.8125],[-48.2685,-15.8129],[-48.2695,-15.812],[-48.2697,-15.8132],[-48.271,-15.8128],[-48.2717,-15.8153],[-48.2742,-15.8168],[-48.275,-15.8169],[-48.2755,-15.8177],[-48.2765,-15.8182],[-48.2764,-15.8192],[-48.2783,-15.822],[-48.2795,-15.8227],[-48.2807,-15.8239],[-48.2808,-15.8254],[-48.2815,-15.8267],[-48.2809,-15.8276],[-48.2816,-15.8299],[-48.2818,-15.8316],[-48.2825,-15.8334],[-48.2839,-15.8346],[-48.2851,-15.8366],[-48.2846,-15.838],[-48.285,-15.8389],[-48.2851,-15.8404],[-48.2836,-15.8415],[-48.2833,-15.8422],[-48.2852,-15.8427],[-48.2857,-15.8433],[-48.2858,-15.8446],[-48.2848,-15.845],[-48.2852,-15.8466],[-48.2844,-15.8468],[-48.284,-15.8486],[-48.2841,-15.8498],[-48.2831,-15.8507],[-48.2824,-15.8529],[-48.2827,-15.8536],[-48.2839,-15.8531],[-48.2841,-15.8542],[-48.2823,-15.8548],[-48.2819,-15.8569],[-48.2815,-15.8575],[-48.2806,-15.8569],[-48.2803,-15.8579],[-48.2815,-15.8587],[-48.2808,-15.8612],[-48.2802,-15.8604],[-48.2792,-15.86],[-48.2789,-15.8619],[-48.2798,-15.8623],[-48.2791,-15.8633],[-48.2792,-15.8647],[-48.2803,-15.8657],[-48.2805,-15.8669],[-48.2791,-15.8673],[-48.2804,-15.8688],[-48.2779,-15.8686],[-48.2766,-15.8693],[-48.2758,-15.8702],[-48.2771,-15.8716],[-48.2776,-15.8726],[-48.2772,-15.8756],[-48.2752,-15.8762],[-48.2749,-15.8768],[-48.2757,-15.8779],[-48.2755,-15.8807],[-48.2749,-15.8805],[-48.2751,-15.8794],[-48.2743,-15.8788],[-48.2738,-15.8795],[-48.2732,-15.8823],[-48.2717,-15.8832],[-48.2717,-15.8842],[-48.2724,-15.8855],[-48.2733,-15.8862],[-48.2733,-15.8873],[-48.2741,-15.8893],[-48.2737,-15.8901],[-48.2753,-15.8906],[-48.2753,-15.8912],[-48.2761,-15.8927],[-48.2756,-15.8936],[-48.2734,-15.8944],[-48.2741,-15.8953],[-48.2753,-15.8956],[-48.2761,-15.8969],[-48.2759,-15.8974],[-48.2742,-15.8976],[-48.2739,-15.8995],[-48.2748,-15.9],[-48.2757,-15.8992],[-48.2767,-15.9],[-48.2758,-15.9017],[-48.2758,-15.903],[-48.2745,-15.903],[-48.2743,-15.9042],[-48.2752,-15.9057],[-48.2764,-15.9061],[-48.2764,-15.9071],[-48.2748,-15.9077],[-48.2749,-15.9088],[-48.2745,-15.9096],[-48.2717,-15.9109],[-48.2702,-15.911],[-48.2702,-15.9119],[-48.2693,-15.9129],[-48.2701,-15.9136],[-48.2701,-15.9144],[-48.2708,-15.916],[-48.2695,-15.9169],[-48.27,-15.9177],[-48.271,-15.9177],[-48.2708,-15.9189],[-48.27,-15.9195],[-48.2727,-15.9207],[-48.2716,-15.9211],[-48.272,-15.9221],[-48.274,-15.9223],[-48.2749,-15.922],[-48.2756,-15.9225],[-48.2753,-15.9234],[-48.2761,-15.9258],[-48.2767,-15.9264],[-48.2752,-15.9271],[-48.2746,-15.9278],[-48.2748,-15.9288],[-48.2756,-15.9304],[-48.2747,-15.9311],[-48.2727,-15.9314],[-48.2711,-15.932],[-48.2702,-15.9316],[-48.2689,-15.9321],[-48.2686,-15.9331],[-48.2651,-15.9316],[-48.2638,-15.9284],[-48.2622,-15.9285],[-48.2607,-15.9293],[-48.2592,-15.9292],[-48.2589,-15.9265],[-48.2584,-15.9248],[-48.2585,-15.9234],[-48.2595,-15.9221],[-48.2592,-15.9207],[-48.2585,-15.9203],[-48.2579,-15.9191],[-48.2578,-15.9179],[-48.2562,-15.9178],[-48.2556,-15.9173],[-48.2541,-15.9171],[-48.2541,-15.9162],[-48.2551,-15.9162],[-48.2552,-15.9155],[-48.2544,-15.9149],[-48.2548,-15.9134],[-48.2555,-15.9126],[-48.2548,-15.9114],[-48.2541,-15.9109],[-48.2531,-15.9114],[-48.2525,-15.9105],[-48.2527,-15.9099],[-48.2505,-15.9086],[-48.2493,-15.9088],[-48.2483,-15.9094],[-48.2457,-15.9069],[-48.2445,-15.9065],[-48.2431,-15.905],[-48.2407,-15.9046],[-48.24,-15.9035],[-48.2386,-15.9038],[-48.2368,-15.9036],[-48.2358,-15.9028],[-48.2369,-15.9016],[-48.237,-15.9009],[-48.2364,-15.9001],[-48.235,-15.8993],[-48.2347,-15.9007],[-48.2328,-15.9005],[-48.2318,-15.9008],[-48.2307,-15.9005],[-48.2304,-15.9017],[-48.2287,-15.9017],[-48.2289,-15.9002],[-48.2274,-15.9004],[-48.2264,-15.901],[-48.2246,-15.9011],[-48.2248,-15.9025],[-48.2232,-15.9019],[-48.2232,-15.9007],[-48.2222,-15.9004],[-48.2209,-15.9011],[-48.22,-15.8998],[-48.2205,-15.8989],[-48.2198,-15.8978],[-48.2187,-15.8991],[-48.2175,-15.8973],[-48.215,-15.8972],[-48.213,-15.8976],[-48.2126,-15.8964],[-48.2118,-15.8956],[-48.2102,-15.897],[-48.2095,-15.8957],[-48.2084,-15.8957],[-48.2077,-15.8946],[-48.2083,-15.8933],[-48.2068,-15.8937],[-48.2058,-15.8926],[-48.206,-15.8915],[-48.2045,-15.8914],[-48.2038,-15.8919],[-48.2022,-15.8912],[-48.2021,-15.8894],[-48.2013,-15.8892],[-48.2002,-15.8878],[-48.2007,-15.8873],[-48.2008,-15.8855],[-48.2003,-15.8843],[-48.1991,-15.883],[-48.1979,-15.8833],[-48.1978,-15.8806],[-48.1969,-15.8801],[-48.1963,-15.8777],[-48.1951,-15.8765],[-48.1949,-15.8752],[-48.1937,-15.8744],[-48.1932,-15.8732],[-48.1923,-15.8726],[-48.1927,-15.8719],[-48.1921,-15.8713],[-48.1908,-15.8716],[-48.1895,-15.8711],[-48.1887,-15.8693],[-48.1876,-15.8691],[-48.1859,-15.8674],[-48.1847,-15.8665],[-48.1835,-15.8644],[-48.1834,-15.8627],[-48.183,-15.8617],[-48.182,-15.8605],[-48.1794,-15.8617],[-48.178,-15.8621],[-48.1776,-15.8615],[-48.1782,-15.8608],[-48.1767,-15.8572],[-48.1757,-15.8575],[-48.1748,-15.8561],[-48.1737,-15.8554],[-48.172,-15.8555],[-48.1714,-15.8547],[-48.1702,-15.8541],[-48.1689,-15.854],[-48.169,-15.8532],[-48.1674,-15.8527],[-48.1669,-15.8533],[-48.166,-15.853],[-48.165,-15.8532],[-48.1636,-15.8517],[-48.1625,-15.8528],[-48.1614,-15.8525],[-48.161,-15.8533],[-48.1602,-15.8533],[-48.1594,-15.8544],[-48.1585,-15.8549],[-48.1556,-15.8545],[-48.1536,-15.8551],[-48.153,-15.8543],[-48.1513,-15.8541],[-48.15,-15.8548],[-48.1498,-15.8559],[-48.1479,-15.8561],[-48.1473,-15.8571],[-48.1462,-15.8569],[-48.1452,-15.8587],[-48.1436,-15.8591],[-48.1424,-15.861],[-48.1405,-15.8616],[-48.1393,-15.8625],[-48.1375,-15.8629],[-48.1373,-15.8636],[-48.1357,-15.8638],[-48.1354,-15.8643],[-48.1337,-15.8641],[-48.1326,-15.863],[-48.1319,-15.8633],[-48.1315,-15.8642],[-48.1303,-15.864],[-48.1291,-15.8646],[-48.1281,-15.8655],[-48.1269,-15.8656],[-48.1244,-15.8675],[-48.1236,-15.8665],[-48.1213,-15.8654],[-48.1201,-15.867],[-48.1186,-15.8672],[-48.1176,-15.8669],[-48.1169,-15.8676],[-48.1153,-15.8674],[-48.1139,-15.8678],[-48.1128,-15.8676],[-48.1106,-15.8665],[-48.1104,-15.8655],[-48.1094,-15.8633],[-48.1099,-15.8624],[-48.1071,-15.8589],[-48.1062,-15.8584],[-48.1055,-15.8573],[-48.1038,-15.857],[-48.1029,-15.8574],[-48.1011,-15.8563],[-48.1005,-15.8564],[-48.0993,-15.8552],[-48.0982,-15.8553],[-48.0966,-15.8547],[-48.0959,-15.854],[-48.0939,-15.8537],[-48.0932,-15.8532],[-48.0919,-15.8534],[-48.0912,-15.8527],[-48.0899,-15.8527],[-48.0889,-15.8523],[-48.0877,-15.8512],[-48.09,-15.8468],[-48.0907,-15.8459],[-48.0909,-15.8429],[-48.0907,-15.8415],[-48.0919,-15.8419],[-48.0933,-15.8377],[-48.0915,-15.837],[-48.0879,-15.8359],[-48.0888,-15.8333],[-48.0922,-15.8248],[-48.0933,-15.8218],[-48.0925,-15.8215],[-48.0937,-15.8176],[-48.0967,-15.8117],[-48.1001,-15.807],[-48.1016,-15.8055],[-48.1061,-15.8007],[-48.1076,-15.7988],[-48.1086,-15.7995],[-48.1124,-15.7945],[-48.111,-15.794],[-48.1083,-15.7901],[-48.1073,-15.7905],[-48.1065,-15.7893],[-48.1048,-15.788],[-48.1043,-15.787],[-48.1034,-15.7866],[-48.1029,-15.7858],[-48.1031,-15.7851],[-48.1029,-15.7833],[-48.1036,-15.781],[-48.1026,-15.7803],[-48.1025,-15.7784],[-48.104,-15.7753],[-48.1048,-15.7754],[-48.1054,-15.7746],[-48.1055,-15.7734],[-48.1062,-15.773],[-48.1068,-15.7719],[-48.1082,-15.772],[-48.1101,-15.7716],[-48.1109,-15.7703],[-48.1086,-15.769],[-48.1077,-15.7693],[-48.105,-15.7676],[-48.1031,-15.767],[-48.0993,-15.7653],[-48.0975,-15.7659],[-48.096,-15.7652],[-48.0951,-15.7652],[-48.0913,-15.7635],[-48.0885,-15.7615],[-48.0872,-15.7613],[-48.0853,-15.7602],[-48.0837,-15.7599],[-48.0829,-15.7593],[-48.0815,-15.7593],[-48.0799,-15.7579],[-48.0792,-15.7579],[-48.077,-15.7571],[-48.0757,-15.7579],[-48.0741,-15.7583],[-48.0726,-15.759],[-48.0713,-15.7587],[-48.0688,-15.7594],[-48.0682,-15.7584],[-48.0664,-15.7569],[-48.0657,-15.7551],[-48.0657,-15.7539],[-48.0672,-15.7512],[-48.0668,-15.7502],[-48.0677,-15.7497],[-48.0684,-15.7471],[-48.0704,-15.745],[-48.0715,-15.7424],[-48.0725,-15.7414],[-48.0722,-15.7401],[-48.0726,-15.739],[-48.0737,-15.7376],[-48.0729,-15.7365],[-48.0771,-15.7347],[-48.0813,-15.732],[-48.0832,-15.7304],[-48.0842,-15.7292],[-48.0853,-15.7273],[-48.086,-15.7255],[-48.0866,-15.7226],[-48.0869,-15.7178],[-48.0878,-15.7053],[-48.0881,-15.7023],[-48.0885,-15.6957],[-48.0892,-15.6875],[-48.0893,-15.6849],[-48.0897,-15.6809],[-48.0897,-15.6782],[-48.0892,-15.6757],[-48.0878,-15.6711],[-48.0872,-15.6687],[-48.0863,-15.6659],[-48.085,-15.6612],[-48.084,-15.6581],[-48.0838,-15.657],[-48.0814,-15.649],[-48.0809,-15.647],[-48.0791,-15.6411],[-48.0787,-15.6394],[-48.0766,-15.6323],[-48.0756,-15.63],[-48.0746,-15.6284],[-48.0729,-15.6266],[-48.0709,-15.625],[-48.0689,-15.624],[-48.0658,-15.6227],[-48.0595,-15.6197],[-48.0543,-15.6174],[-48.0541,-15.6172],[-48.0495,-15.6152],[-48.0463,-15.6134],[-48.0445,-15.6119],[-48.0428,-15.6101],[-48.0397,-15.6062],[-48.0364,-15.6023],[-48.0339,-15.5991],[-48.0327,-15.5978],[-48.0292,-15.5934],[-48.0267,-15.5908],[-48.0224,-15.587],[-48.0212,-15.5861],[-48.0185,-15.5836],[-48.017,-15.5824],[-48.0241,-15.5738],[-48.0269,-15.5714],[-48.029,-15.57],[-48.035,-15.5654],[-48.0354,-15.5637],[-48.0352,-15.5629],[-48.0337,-15.5597],[-48.0336,-15.558],[-48.0342,-15.5562],[-48.0349,-15.5551],[-48.0361,-15.554],[-48.0422,-15.5504],[-48.0435,-15.5485],[-48.0439,-15.5463],[-48.0435,-15.5444],[-48.0426,-15.5425],[-48.0416,-15.5412],[-48.038,-15.5381],[-48.0376,-15.5376],[-48.0331,-15.5336],[-48.0318,-15.5315],[-48.0328,-15.5307],[-48.0345,-15.5316],[-48.0358,-15.5308],[-48.0379,-15.5277],[-48.0389,-15.5255],[-48.0398,-15.5194],[-48.0394,-15.5165],[-48.0373,-15.5113],[-48.0358,-15.5081],[-48.0342,-15.505],[-48.0341,-15.5036],[-48.0348,-15.5024],[-48.2,-15.5023],[-48.2,-15.5627],[-48.2,-15.6007],[-48.2,-15.6231],[-48.2012,-15.623],[-48.2037,-15.6245],[-48.2051,-15.6237],[-48.2061,-15.6237],[-48.2075,-15.6231],[-48.2091,-15.6232],[-48.2118,-15.6225],[-48.2145,-15.6229],[-48.2165,-15.6221],[-48.2176,-15.6224],[-48.2185,-15.6243],[-48.22,-15.6259],[-48.2207,-15.6274],[-48.2233,-15.6282],[-48.225,-15.6294],[-48.226,-15.6307],[-48.226,-15.6313],[-48.2275,-15.6328],[-48.2283,-15.6333],[-48.2293,-15.6354],[-48.2296,-15.6373],[-48.2319,-15.6394],[-48.2323,-15.6402],[-48.234,-15.6412],[-48.2345,-15.6431],[-48.2351,-15.6472],[-48.2355,-15.6485],[-48.2363,-15.6495],[-48.2363,-15.6526],[-48.2348,-15.656],[-48.2337,-15.6574],[-48.2342,-15.6579],[-48.2349,-15.6598],[-48.2351,-15.6627],[-48.2346,-15.6653],[-48.2346,-15.6673],[-48.2351,-15.6688],[-48.236,-15.67],[-48.2366,-15.6719],[-48.237,-15.6723],[-48.2379,-15.6764],[-48.2386,-15.6778],[-48.2389,-15.6793],[-48.2395,-15.6795],[-48.2395,-15.6818],[-48.241,-15.6862],[-48.2412,-15.6878],[-48.2413,-15.6909],[-48.2407,-15.6919],[-48.2408,-15.6931],[-48.2415,-15.694],[-48.2404,-15.6945],[-48.2396,-15.6954],[-48.2393,-15.697],[-48.2395,-15.6989],[-48.2399,-15.7001]]]},"properties":{"nome":"Oeste","macrorregiaoSaude":"Macrorregiāo 1","regioesAdministrativas":"Brazlândia, Ceilândia, Pôr Sol/Sol Nascente"}},
{"type":"Feature","geometry":{"type":"Polygon","coordinates":[[[-48.0729,-15.7365],[-48.0737,-15.7376],[-48.0726,-15.739],[-48.0722,-15.7401],[-48.0725,-15.7414],[-48.0715,-15.7424],[-48.0704,-15.745],[-48.0684,-15.7471],[-48.0677,-15.7497],[-48.0668,-15.7502],[-48.0672,-15.7512],[-48.0657,-15.7539],[-48.0657,-15.7551],[-48.0664,-15.7569],[-48.0682,-15.7584],[-48.0688,-15.7594],[-48.0713,-15.7587],[-48.0726,-15.759],[-48.0741,-15.7583],[-48.0757,-15.7579],[-48.077,-15.7571],[-48.0792,-15.7579],[-48.0799,-15.7579],[-48.0815,-15.7593],[-48.0829,-15.7593],[-48.0837,-15.7599],[-48.0853,-15.7602],[-48.0872,-15.7613],[-48.0885,-15.7615],[-48.0913,-15.7635],[-48.0951,-15.7652],[-48.096,-15.7652],[-48.0975,-15.7659],[-48.0993,-15.7653],[-48.1031,-15.767],[-48.105,-15.7676],[-48.1077,-15.7693],[-48.1086,-15.769],[-48.1109,-15.7703],[-48.1101,-15.7716],[-48.1082,-15.772],[-48.1068,-15.7719],[-48.1062,-15.773],[-48.1055,-15.7734],[-48.1054,-15.7746],[-48.1048,-15.7754],[-48.104,-15.7753],[-48.1025,-15.7784],[-48.1026,-15.7803],[-48.1036,-15.781],[-48.1029,-15.7833],[-48.1031,-15.7851],[-48.1029,-15.7858],[-48.1034,-15.7866],[-48.1043,-15.787],[-48.1048,-15.788],[-48.1065,-15.7893],[-48.1073,-15.7905],[-48.1083,-15.7901],[-48.111,-15.794],[-48.1124,-15.7945],[-48.1086,-15.7995],[-48.1076,-15.7988],[-48.1061,-15.8007],[-48.1016,-15.8055],[-48.1001,-15.807],[-48.0967,-15.8117],[-48.0937,-15.8176],[-48.0925,-15.8215],[-48.0933,-15.8218],[-48.0922,-15.8248],[-48.0888,-15.8333],[-48.0879,-15.8359],[-48.0915,-15.837],[-48.0933,-15.8377],[-48.0919,-15.8419],[-48.0907,-15.8415],[-48.0909,-15.8429],[-48.0907,-15.8459],[-48.09,-15.8468],[-48.0877,-15.8512],[-48.0889,-15.8523],[-48.0899,-15.8527],[-48.0912,-15.8527],[-48.0919,-15.8534],[-48.0932,-15.8532],[-48.0939,-15.8537],[-48.0959,-15.854],[-48.0966,-15.8547],[-48.0982,-15.8553],[-48.0993,-15.8552],[-48.1005,-15.8564],[-48.1011,-15.8563],[-48.1029,-15.8574],[-48.1038,-15.857],[-48.1055,-15.8573],[-48.1062,-15.8584],[-48.1071,-15.8589],[-48.1099,-15.8624],[-48.1094,-15.8633],[-48.1104,-15.8655],[-48.1106,-15.8665],[-48.1128,-15.8676],[-48.1139,-15.8678],[-48.1153,-15.8674],[-48.1169,-15.8676],[-48.1176,-15.8669],[-48.1186,-15.8672],[-48.1201,-15.867],[-48.1213,-15.8654],[-48.1236,-15.8665],[-48.1244,-15.8675],[-48.1269,-15.8656],[-48.1281,-15.8655],[-48.1291,-15.8646],[-48.1303,-15.864],[-48.1315,-15.8642],[-48.1319,-15.8633],[-48.1326,-15.863],[-48.1337,-15.8641],[-48.1354,-15.8643],[-48.1357,-15.8638],[-48.1373,-15.8636],[-48.1375,-15.8629],[-48.1393,-15.8625],[-48.1405,-15.8616],[-48.1424,-15.861],[-48.1436,-15.8591],[-48.1452,-15.8587],[-48.1462,-15.8569],[-48.1473,-15.8571],[-48.1479,-15.8561],[-48.1498,-15.8559],[-48.15,-15.8548],[-48.1513,-15.8541],[-48.153,-15.8543],[-48.1536,-15.8551],[-48.1556,-15.8545],[-48.1585,-15.8549],[-48.1594,-15.8544],[-48.1602,-15.8533],[-48.161,-15.8533],[-48.1614,-15.8525],[-48.1625,-15.8528],[-48.1636,-15.8517],[-48.165,-15.8532],[-48.166,-15.853],[-48.1669,-15.8533],[-48.1674,-15.8527],[-48.169,-15.8532],[-48.1689,-15.854],[-48.1702,-15.8541],[-48.1714,-15.8547],[-48.172,-15.8555],[-48.1737,-15.8554],[-48.1748,-15.8561],[-48.1757,-15.8575],[-48.1767,-15.8572],[-48.1782,-15.8608],[-48.1776,-15.8615],[-48.178,-15.8621],[-48.1794,-15.8617],[-48.182,-15.8605],[-48.183,-15.8617],[-48.1834,-15.8627],[-48.1835,-15.8644],[-48.1847,-15.8665],[-48.1859,-15.8674],[-48.1876,-15.8691],[-48.1887,-15.8693],[-48.1895,-15.8711],[-48.1908,-15.8716],[-48.1921,-15.8713],[-48.1927,-15.8719],[-48.1923,-15.8726],[-48.1932,-15.8732],[-48.1937,-15.8744],[-48.1949,-15.8752],[-48.1951,-15.8765],[-48.1963,-15.8777],[-48.1969,-15.8801],[-48.1978,-15.8806],[-48.1979,-15.8833],[-48.1991,-15.883],[-48.2003,-15.8843],[-48.2008,-15.8855],[-48.2007,-15.8873],[-48.2002,-15.8878],[-48.2013,-15.8892],[-48.2021,-15.8894],[-48.2022,-15.8912],[-48.2038,-15.8919],[-48.2045,-15.8914],[-48.206,-15.8915],[-48.2058,-15.8926],[-48.2068,-15.8937],[-48.2083,-15.8933],[-48.2077,-15.8946],[-48.2084,-15.8957],[-48.2095,-15.8957],[-48.2102,-15.897],[-48.2118,-15.8956],[-48.2126,-15.8964],[-48.213,-15.8976],[-48.215,-15.8972],[-48.2175,-15.8973],[-48.2187,-15.8991],[-48.2198,-15.8978],[-48.2205,-15.8989],[-48.22,-15.8998],[-48.2209,-15.9011],[-48.2222,-15.9004],[-48.2232,-15.9007],[-48.2232,-15.9019],[-48.2248,-15.9025],[-48.2246,-15.9011],[-48.2264,-15.901],[-48.2274,-15.9004],[-48.2289,-15.9002],[-48.2287,-15.9017],[-48.2304,-15.9017],[-48.2307,-15.9005],[-48.2318,-15.9008],[-48.2328,-15.9005],[-48.2347,-15.9007],[-48.235,-15.8993],[-48.2364,-15.9001],[-48.237,-15.9009],[-48.2369,-15.9016],[-48.2358,-15.9028],[-48.2368,-15.9036],[-48.2386,-15.9038],[-48.24,-15.9035],[-48.2407,-15.9046],[-48.2431,-15.905],[-48.2445,-15.9065],[-48.2457,-15.9069],[-48.2483,-15.9094],[-48.2493,-15.9088],[-48.2505,-15.9086],[-48.2527,-15.9099],[-48.2525,-15.9105],[-48.2531,-15.9114],[-48.2541,-15.9109],[-48.2548,-15.9114],[-48.2555,-15.9126],[-48.2548,-15.9134],[-48.2544,-15.9149],[-48.2552,-15.9155],[-48.2551,-15.9162],[-48.2541,-15.9162],[-48.2541,-15.9171],[-48.2556,-15.9173],[-48.2562,-15.9178],[-48.2578,-15.9179],[-48.2579,-15.9191],[-48.2585,-15.9203],[-48.2592,-15.9207],[-48.2595,-15.9221],[-48.2585,-15.9234],[-48.2584,-15.9248],[-48.2589,-15.9265],[-48.2592,-15.9292],[-48.2587,-15.9298],[-48.2586,-15.9317],[-48.2578,-15.9323],[-48.2569,-15.9319],[-48.2558,-15.9322],[-48.2543,-15.9369],[-48.2524,-15.9358],[-48.2513,-15.9378],[-48.2527,-15.9402],[-48.2522,-15.9412],[-48.2527,-15.9422],[-48.2529,-15.9442],[-48.2508,-15.9438],[-48.2507,-15.9454],[-48.2502,-15.9474],[-48.2509,-15.9481],[-48.2531,-15.9464],[-48.2534,-15.9486],[-48.2521,-15.9488],[-48.2521,-15.9513],[-48.2518,-15.9533],[-48.2514,-15.9539],[-48.2514,-15.9556],[-48.2534,-15.9559],[-48.2538,-15.9567],[-48.2547,-15.9571],[-48.2544,-15.9581],[-48.2549,-15.9593],[-48.2559,-15.9594],[-48.2563,-15.9601],[-48.2552,-15.9606],[-48.2551,-15.9621],[-48.2565,-15.9615],[-48.256,-15.963],[-48.2575,-15.9637],[-48.2577,-15.9649],[-48.2587,-15.9659],[-48.2603,-15.9669],[-48.2601,-15.968],[-48.2606,-15.9687],[-48.2597,-15.9697],[-48.258,-15.9728],[-48.2586,-15.9736],[-48.2597,-15.9742],[-48.2592,-15.9749],[-48.2591,-15.9764],[-48.2585,-15.9772],[-48.2577,-15.9777],[-48.2565,-15.9771],[-48.2553,-15.9773],[-48.2536,-15.9772],[-48.2537,-15.9759],[-48.2516,-15.9761],[-48.2504,-15.9756],[-48.2472,-15.9755],[-48.2465,-15.9738],[-48.2456,-15.9731],[-48.2442,-15.9733],[-48.2435,-15.9728],[-48.2414,-15.972],[-48.2402,-15.972],[-48.2402,-15.9708],[-48.2385,-15.9717],[-48.2383,-15.9726],[-48.2369,-15.9724],[-48.2358,-15.9719],[-48.2331,-15.9717],[-48.2325,-15.972],[-48.2309,-15.971],[-48.2293,-15.9705],[-48.2284,-15.9713],[-48.2261,-15.9709],[-48.2246,-15.9709],[-48.2245,-15.9699],[-48.2236,-15.9698],[-48.2232,-15.9707],[-48.2214,-15.9706],[-48.2208,-15.9699],[-48.219,-15.969],[-48.2179,-15.969],[-48.2161,-15.9676],[-48.2144,-15.9671],[-48.214,-15.966],[-48.2122,-15.9662],[-48.2111,-15.9651],[-48.2082,-15.9651],[-48.2061,-15.9642],[-48.2053,-15.9644],[-48.2033,-15.9633],[-48.2022,-15.9633],[-48.2004,-15.9623],[-48.1998,-15.9635],[-48.1986,-15.964],[-48.1969,-15.9634],[-48.1957,-15.9627],[-48.1937,-15.9639],[-48.1925,-15.9635],[-48.1924,-15.9614],[-48.192,-15.9606],[-48.191,-15.96],[-48.1896,-15.9584],[-48.1884,-15.9566],[-48.1869,-15.9533],[-48.187,-15.952],[-48.1866,-15.9502],[-48.1873,-15.9467],[-48.1871,-15.9457],[-48.1857,-15.9455],[-48.1817,-15.9459],[-48.1792,-15.9467],[-48.1762,-15.9463],[-48.173,-15.9471],[-48.1728,-15.9463],[-48.1664,-15.9468],[-48.163,-15.9468],[-48.1629,-15.9455],[-48.161,-15.9426],[-48.1602,-15.9403],[-48.1587,-15.9387],[-48.1568,-15.9371],[-48.1556,-15.937],[-48.1542,-15.9346],[-48.1531,-15.9344],[-48.1535,-15.943],[-48.1536,-15.9439],[-48.1534,-15.9471],[-48.1516,-15.9464],[-48.1508,-15.9456],[-48.1494,-15.9451],[-48.147,-15.9434],[-48.1453,-15.9431],[-48.1419,-15.9432],[-48.1403,-15.9437],[-48.1377,-15.9448],[-48.1358,-15.9452],[-48.1341,-15.9452],[-48.1334,-15.9449],[-48.1308,-15.9428],[-48.1295,-15.9425],[-48.1275,-15.9428],[-48.127,-15.944],[-48.1267,-15.9461],[-48.1255,-15.948],[-48.1239,-15.9496],[-48.1239,-15.9502],[-48.1223,-15.953],[-48.1225,-15.9544],[-48.122,-15.9557],[-48.1203,-15.9548],[-48.1202,-15.9537],[-48.1189,-15.9538],[-48.1177,-15.9528],[-48.115,-15.9519],[-48.1143,-15.9511],[-48.1126,-15.9516],[-48.1115,-15.9509],[-48.1104,-15.9493],[-48.1091,-15.9486],[-48.1082,-15.9471],[-48.1073,-15.9467],[-48.1065,-15.9447],[-48.1054,-15.9443],[-48.1051,-15.9429],[-48.1039,-15.942],[-48.1035,-15.9406],[-48.1021,-15.9371],[-48.1014,-15.937],[-48.0999,-15.9356],[-48.0989,-15.9352],[-48.0978,-15.934],[-48.0944,-15.9323],[-48.0925,-15.9332],[-48.0912,-15.935],[-48.0867,-15.9386],[-48.0847,-15.9403],[-48.0827,-15.9417],[-48.0811,-15.9399],[-48.08,-15.9391],[-48.0784,-15.9387],[-48.0754,-15.9396],[-48.0739,-15.9407],[-48.0646,-15.9464],[-48.0622,-15.948],[-48.0617,-15.948],[-48.0558,-15.9517],[-48.0543,-15.9525],[-48.0524,-15.9531],[-48.0509,-15.9533],[-48.0485,-15.9532],[-48.0452,-15.9522],[-48.0436,-15.9515],[-48.0422,-15.9506],[-48.0407,-15.9492],[-48.0395,-15.9476],[-48.0382,-15.9454],[-48.0402,-15.9426],[-48.0422,-15.9387],[-48.0435,-15.935],[-48.044,-15.9332],[-48.0469,-15.9245],[-48.049,-15.9176],[-48.051,-15.9116],[-48.0541,-15.9017],[-48.0603,-15.8824],[-48.0571,-15.8814],[-48.0547,-15.8802],[-48.0507,-15.8776],[-48.0492,-15.8765],[-48.0462,-15.8746],[-48.0438,-15.8738],[-48.0424,-15.8738],[-48.0366,-15.8746],[-48.0329,-15.8752],[-48.0278,-15.8759],[-48.0237,-15.8767],[-48.0209,-15.877],[-48.0129,-15.8782],[-48.0085,-15.878],[-47.9991,-15.8771],[-47.9926,-15.8766],[-47.9922,-15.8763],[-47.9936,-15.8712],[-47.9939,-15.869],[-47.9918,-15.8685],[-47.9914,-15.868],[-47.9919,-15.8662],[-47.9865,-15.8648],[-47.9883,-15.8628],[-47.988,-15.8624],[-47.9903,-15.8601],[-47.9909,-15.8602],[-47.9946,-15.8566],[-47.995,-15.8569],[-47.9962,-15.8556],[-47.9961,-15.855],[-48,-15.8511],[-48.0005,-15.8502],[-47.9988,-15.8487],[-47.9999,-15.8464],[-48.0008,-15.8468],[-48.002,-15.8483],[-48.0031,-15.8489],[-48.0064,-15.8502],[-48.0076,-15.8473],[-48.0081,-15.8474],[-48.0091,-15.8449],[-48.0109,-15.8411],[-48.0062,-15.8391],[-48.0036,-15.8381],[-48.0053,-15.8343],[-48.0078,-15.8354],[-48.0116,-15.827],[-48.0136,-15.8222],[-48.0112,-15.8212],[-48.0106,-15.822],[-48.0054,-15.8199],[-48.0038,-15.8191],[-48.0032,-15.8182],[-48.0026,-15.8184],[-48.001,-15.8176],[-48.0045,-15.8155],[-48.0043,-15.8143],[-47.9947,-15.8109],[-47.9929,-15.811],[-47.9925,-15.8089],[-47.9912,-15.7995],[-47.9907,-15.794],[-47.9898,-15.7873],[-47.9909,-15.787],[-47.9957,-15.7863],[-47.9973,-15.7862],[-48.003,-15.7862],[-48.003,-15.7857],[-48.0042,-15.7846],[-48.0041,-15.783],[-48.0046,-15.7818],[-48.0059,-15.7797],[-48.006,-15.777],[-48.0066,-15.7761],[-48.0068,-15.7736],[-48.0063,-15.7728],[-48.0061,-15.7706],[-48.0068,-15.7692],[-48.0065,-15.7669],[-48.0073,-15.7649],[-48.0073,-15.763],[-48.0066,-15.7617],[-48.0068,-15.7608],[-48.0062,-15.7592],[-48.0054,-15.759],[-48.005,-15.7577],[-48.0047,-15.7548],[-48.008,-15.7536],[-48.0169,-15.7516],[-48.0253,-15.7521],[-48.0337,-15.7527],[-48.0369,-15.753],[-48.0423,-15.7533],[-48.0476,-15.7537],[-48.0499,-15.7484],[-48.0513,-15.7461],[-48.054,-15.743],[-48.0555,-15.7418],[-48.0582,-15.74],[-48.0601,-15.7391],[-48.064,-15.738],[-48.0729,-15.7365]]]},"properties":{"nome":"Sudoeste","macrorregiaoSaude":"Macrorregião 1","regioesAdministrativas":"Águas Claras, Arniqueiras, Recanto das Emas, Samambaia, Taguatinga, Vicente Pires"}},
{"type":"Feature","geometry":{"type":"Polygon","coordinates":[[[-48.0382,-15.9454],[-48.0395,-15.9476],[-48.0407,-15.9492],[-48.0422,-15.9506],[-48.0436,-15.9515],[-48.0452,-15.9522],[-48.0485,-15.9532],[-48.0509,-15.9533],[-48.0524,-15.9531],[-48.0543,-15.9525],[-48.0558,-15.9517],[-48.0617,-15.948],[-48.0622,-15.948],[-48.0646,-15.9464],[-48.0739,-15.9407],[-48.0754,-15.9396],[-48.0784,-15.9387],[-48.08,-15.9391],[-48.0811,-15.9399],[-48.0827,-15.9417],[-48.0847,-15.9403],[-48.0867,-15.9386],[-48.0912,-15.935],[-48.0925,-15.9332],[-48.0944,-15.9323],[-48.0978,-15.934],[-48.0989,-15.9352],[-48.0999,-15.9356],[-48.1014,-15.937],[-48.1021,-15.9371],[-48.1035,-15.9406],[-48.1039,-15.942],[-48.1051,-15.9429],[-48.1054,-15.9443],[-48.1065,-15.9447],[-48.1073,-15.9467],[-48.1082,-15.9471],[-48.1091,-15.9486],[-48.1104,-15.9493],[-48.1115,-15.9509],[-48.1126,-15.9516],[-48.1143,-15.9511],[-48.115,-15.9519],[-48.1177,-15.9528],[-48.1189,-15.9538],[-48.1202,-15.9537],[-48.1203,-15.9548],[-48.122,-15.9557],[-48.1225,-15.9544],[-48.1223,-15.953],[-48.1239,-15.9502],[-48.1239,-15.9496],[-48.1255,-15.948],[-48.1267,-15.9461],[-48.127,-15.944],[-48.1275,-15.9428],[-48.1295,-15.9425],[-48.1308,-15.9428],[-48.1334,-15.9449],[-48.1341,-15.9452],[-48.1358,-15.9452],[-48.1377,-15.9448],[-48.1403,-15.9437],[-48.1419,-15.9432],[-48.1453,-15.9431],[-48.147,-15.9434],[-48.1494,-15.9451],[-48.1508,-15.9456],[-48.1516,-15.9464],[-48.1534,-15.9471],[-48.1536,-15.9439],[-48.1535,-15.943],[-48.1531,-15.9344],[-48.1542,-15.9346],[-48.1556,-15.937],[-48.1568,-15.9371],[-48.1587,-15.9387],[-48.1602,-15.9403],[-48.161,-15.9426],[-48.1629,-15.9455],[-48.163,-15.9468],[-48.1664,-15.9468],[-48.1728,-15.9463],[-48.173,-15.9471],[-48.1762,-15.9463],[-48.1792,-15.9467],[-48.1817,-15.9459],[-48.1857,-15.9455],[-48.1871,-15.9457],[-48.1873,-15.9467],[-48.1866,-15.9502],[-48.187,-15.952],[-48.1869,-15.9533],[-48.1884,-15.9566],[-48.1896,-15.9584],[-48.191,-15.96],[-48.192,-15.9606],[-48.1924,-15.9614],[-48.1925,-15.9635],[-48.1937,-15.9639],[-48.1957,-15.9627],[-48.1969,-15.9634],[-48.1986,-15.964],[-48.1998,-15.9635],[-48.2004,-15.9623],[-48.2022,-15.9633],[-48.2033,-15.9633],[-48.2053,-15.9644],[-48.2061,-15.9642],[-48.2082,-15.9651],[-48.2111,-15.9651],[-48.2122,-15.9662],[-48.214,-15.966],[-48.2144,-15.9671],[-48.2161,-15.9676],[-48.2179,-15.969],[-48.219,-15.969],[-48.2208,-15.9699],[-48.2214,-15.9706],[-48.2232,-15.9707],[-48.2236,-15.9698],[-48.2245,-15.9699],[-48.2246,-15.9709],[-48.2261,-15.9709],[-48.2284,-15.9713],[-48.2293,-15.9705],[-48.2309,-15.971],[-48.2325,-15.972],[-48.2331,-15.9717],[-48.2358,-15.9719],[-48.2369,-15.9724],[-48.2383,-15.9726],[-48.2385,-15.9717],[-48.2402,-15.9708],[-48.2402,-15.972],[-48.2414,-15.972],[-48.2435,-15.9728],[-48.2442,-15.9733],[-48.2456,-15.9731],[-48.2465,-15.9738],[-48.2472,-15.9755],[-48.2504,-15.9756],[-48.2516,-15.9761],[-48.2537,-15.9759],[-48.2536,-15.9772],[-48.2553,-15.9773],[-48.2565,-15.9771],[-48.2577,-15.9777],[-48.2585,-15.9772],[-48.2596,-15.9786],[-48.2606,-15.9788],[-48.2605,-15.9796],[-48.2597,-15.9803],[-48.2586,-15.9805],[-48.2584,-15.9813],[-48.2591,-15.9822],[-48.2583,-15.9835],[-48.2592,-15.9845],[-48.2613,-15.985],[-48.2618,-15.9855],[-48.2622,-15.9874],[-48.2629,-15.9888],[-48.2625,-15.9896],[-48.2615,-15.9895],[-48.2627,-15.9916],[-48.264,-15.9924],[-48.2625,-15.9946],[-48.2636,-15.9961],[-48.2654,-15.9966],[-48.2654,-15.998],[-48.2662,-15.9991],[-48.2662,-16.0007],[-48.2666,-16.0014],[-48.2678,-16.0012],[-48.27,-16.0039],[-48.2697,-16.005],[-48.2705,-16.0062],[-48.2711,-16.008],[-48.2721,-16.0086],[-48.2714,-16.0096],[-48.2722,-16.0113],[-48.2722,-16.0136],[-48.2711,-16.0147],[-48.2717,-16.0154],[-48.2706,-16.0159],[-48.2701,-16.0166],[-48.27,-16.0185],[-48.2706,-16.0199],[-48.2699,-16.0224],[-48.2711,-16.0236],[-48.2724,-16.0237],[-48.2722,-16.0256],[-48.2714,-16.027],[-48.2723,-16.028],[-48.2729,-16.0309],[-48.2718,-16.0316],[-48.2737,-16.0335],[-48.2742,-16.0347],[-48.2735,-16.0358],[-48.2754,-16.0364],[-48.2772,-16.0394],[-48.2768,-16.0409],[-48.2783,-16.0413],[-48.2786,-16.0421],[-48.2774,-16.0442],[-48.2785,-16.0445],[-48.2777,-16.0472],[-48.2772,-16.0496],[-48.0486,-16.0501],[-47.8885,-16.0503],[-47.8877,-16.0492],[-47.8853,-16.0472],[-47.8844,-16.0467],[-47.8825,-16.0467],[-47.8812,-16.0456],[-47.8808,-16.0442],[-47.8792,-16.043],[-47.8789,-16.0416],[-47.8765,-16.0404],[-47.8756,-16.0392],[-47.8737,-16.0389],[-47.8706,-16.0379],[-47.8693,-16.038],[-47.8686,-16.0376],[-47.8696,-16.035],[-47.8707,-16.0344],[-47.8709,-16.0332],[-47.8716,-16.0321],[-47.8726,-16.0317],[-47.8726,-16.0307],[-47.8735,-16.0286],[-47.8749,-16.0272],[-47.8749,-16.0249],[-47.876,-16.0223],[-47.8771,-16.0208],[-47.877,-16.0183],[-47.8757,-16.0167],[-47.8754,-16.0159],[-47.8721,-16.0139],[-47.8715,-16.0139],[-47.8706,-16.0128],[-47.8714,-16.0125],[-47.8721,-16.0113],[-47.8741,-16.0105],[-47.8756,-16.0076],[-47.876,-16.0056],[-47.878,-16.0016],[-47.8785,-16],[-47.8784,-15.9985],[-47.8779,-15.9971],[-47.8783,-15.9939],[-47.8791,-15.9922],[-47.8805,-15.9901],[-47.8804,-15.9881],[-47.8817,-15.9847],[-47.8822,-15.9841],[-47.8838,-15.9811],[-47.8845,-15.9791],[-47.8847,-15.9778],[-47.8854,-15.9771],[-47.8875,-15.9767],[-47.8879,-15.9755],[-47.8886,-15.975],[-47.8902,-15.9711],[-47.8915,-15.9713],[-47.8924,-15.9693],[-47.9001,-15.9722],[-47.9008,-15.9724],[-47.9248,-15.9812],[-47.9291,-15.9827],[-47.9313,-15.9833],[-47.9365,-15.984],[-47.9389,-15.984],[-47.9412,-15.9838],[-47.9455,-15.9829],[-47.9485,-15.9819],[-47.9569,-15.9789],[-47.9657,-15.9759],[-47.9663,-15.9756],[-47.9712,-15.9746],[-47.9756,-15.9744],[-47.9784,-15.9746],[-47.9896,-15.9768],[-47.9908,-15.9768],[-47.9966,-15.978],[-48.0008,-15.9783],[-48.003,-15.9781],[-48.0067,-15.9773],[-48.0091,-15.9764],[-48.0115,-15.9752],[-48.0139,-15.9735],[-48.016,-15.9715],[-48.02,-15.967],[-48.024,-15.9622],[-48.0352,-15.9491],[-48.0382,-15.9454]]]},"properties":{"nome":"Sul","macrorregiaoSaude":"Macrorregiāo 2","regioesAdministrativas":"Gama, Santa Maria"}}
]}